{
"type": "FeatureCollection",
"name": "brazil-municipalities",
"crs": { "type": "name", "properties": { "name": "urn:ogc:def:crs:EPSG::4674" } },
"xy_coordinate_resolution": 0.001,
"features": [
{ "type": "Feature", "properties": { "CD_MUN": "2410900", "NM_MUN": "Riachuelo", "CD_RGI": "240006", "NM_RGI": "São Paulo do Potengi", "CD_RGINT": "2401", "NM_RGINT": "Natal", "CD_UF": "24", "NM_UF": "Rio Grande do Norte", "SIGLA_UF": "RN", "CD_REGIAO": "2", "NM_REGIAO": "Nordeste", "SIGLA_RG": "NE", "CD_CONCURB": null, "NM_CONCURB": null, "AREA_KM2": 262.88 }, "geometry": { "type": "MultiPolygon", "coordinates": [ [ [ [ -35.784, -5.825 ], [ -35.797, -5.853 ], [ -35.833, -5.909 ], [ -35.833, -5.909 ], [ -35.837, -5.911 ], [ -35.842, -5.914 ], [ -35.844, -5.915 ], [ -35.85, -5.915 ], [ -35.85, -5.915 ], [ -35.851, -5.913 ], [ -35.89, -5.854 ], [ -35.926, -5.8 ], [ -35.928, -5.8 ], [ -35.931, -5.799 ], [ -35.933, -5.798 ], [ -35.936, -5.795 ], [ -35.937, -5.794 ], [ -35.938, -5.795 ], [ -35.939, -5.795 ], [ -35.939, -5.794 ], [ -35.937, -5.789 ], [ -35.936, -5.786 ], [ -35.934, -5.785 ], [ -35.933, -5.783 ], [ -35.932, -5.781 ], [ -35.931, -5.779 ], [ -35.93, -5.778 ], [ -35.929, -5.777 ], [ -35.928, -5.775 ], [ -35.927, -5.774 ], [ -35.926, -5.77 ], [ -35.924, -5.767 ], [ -35.924, -5.765 ], [ -35.924, -5.764 ], [ -35.924, -5.762 ], [ -35.925, -5.761 ], [ -35.927, -5.758 ], [ -35.927, -5.758 ], [ -35.927, -5.756 ], [ -35.927, -5.754 ], [ -35.927, -5.753 ], [ -35.93, -5.754 ], [ -35.931, -5.753 ], [ -35.932, -5.753 ], [ -35.933, -5.752 ], [ -35.934, -5.75 ], [ -35.935, -5.749 ], [ -35.935, -5.748 ], [ -35.936, -5.748 ], [ -35.937, -5.745 ], [ -35.938, -5.743 ], [ -35.938, -5.74 ], [ -35.94, -5.733 ], [ -35.883, -5.727 ], [ -35.832, -5.722 ], [ -35.831, -5.722 ], [ -35.826, -5.721 ], [ -35.785, -5.717 ], [ -35.777, -5.716 ], [ -35.78, -5.815 ], [ -35.783, -5.824 ], [ -35.784, -5.825 ] ] ] ] } },
{ "type": "Feature", "properties": { "CD_MUN": "1302603", "NM_MUN": "Manaus", "CD_RGI": "130001", "NM_RGI": "Manaus", "CD_RGINT": "1301", "NM_RGINT": "Manaus", "CD_UF": "13", "NM_UF": "Amazonas", "SIGLA_UF": "AM", "CD_REGIAO": "1", "NM_REGIAO": "Norte", "SIGLA_RG": "N", "CD_CONCURB": "1302603", "NM_CONCURB": "Manaus", "AREA_KM2": 11278.893 }, "geometry": { "type": "MultiPolygon", "coordinates": [ [ [ [ -59.369, -3.077 ], [ -59.369, -3.078 ], [ -59.368, -3.078 ], [ -59.368, -3.079 ], [ -59.367, -3.079 ], [ -59.367, -3.08 ], [ -59.365, -3.081 ], [ -59.362, -3.083 ], [ -59.361, -3.083 ], [ -59.358, -3.085 ], [ -59.358, -3.086 ], [ -59.357, -3.086 ], [ -59.357, -3.087 ], [ -59.356, -3.087 ], [ -59.356, -3.088 ], [ -59.355, -3.088 ], [ -59.355, -3.089 ], [ -59.354, -3.089 ], [ -59.354, -3.09 ], [ -59.353, -3.091 ], [ -59.352, -3.092 ], [ -59.352, -3.093 ], [ -59.351, -3.093 ], [ -59.351, -3.094 ], [ -59.35, -3.095 ], [ -59.349, -3.097 ], [ -59.348, -3.098 ], [ -59.348, -3.099 ], [ -59.345, -3.104 ], [ -59.345, -3.106 ], [ -59.344, -3.106 ], [ -59.344, -3.107 ], [ -59.343, -3.108 ], [ -59.342, -3.109 ], [ -59.341, -3.11 ], [ -59.34, -3.11 ], [ -59.34, -3.111 ], [ -59.339, -3.111 ], [ -59.338, -3.111 ], [ -59.338, -3.112 ], [ -59.337, -3.112 ], [ -59.336, -3.112 ], [ -59.335, -3.112 ], [ -59.335, -3.113 ], [ -59.334, -3.113 ], [ -59.333, -3.113 ], [ -59.332, -3.113 ], [ -59.331, -3.113 ], [ -59.33, -3.113 ], [ -59.33, -3.112 ], [ -59.329, -3.112 ], [ -59.328, -3.112 ], [ -59.327, -3.112 ], [ -59.326, -3.112 ], [ -59.325, -3.112 ], [ -59.324, -3.112 ], [ -59.323, -3.112 ], [ -59.322, -3.112 ], [ -59.322, -3.113 ], [ -59.321, -3.113 ], [ -59.32, -3.113 ], [ -59.32, -3.114 ], [ -59.319, -3.114 ], [ -59.319, -3.115 ], [ -59.318, -3.115 ], [ -59.318, -3.116 ], [ -59.316, -3.118 ], [ -59.314, -3.121 ], [ -59.312, -3.124 ], [ -59.312, -3.125 ], [ -59.311, -3.126 ], [ -59.311, -3.127 ], [ -59.31, -3.128 ], [ -59.31, -3.129 ], [ -59.309, -3.129 ], [ -59.309, -3.13 ], [ -59.308, -3.131 ], [ -59.307, -3.131 ], [ -59.307, -3.132 ], [ -59.306, -3.132 ], [ -59.305, -3.132 ], [ -59.304, -3.132 ], [ -59.303, -3.132 ], [ -59.302, -3.132 ], [ -59.301, -3.132 ], [ -59.301, -3.133 ], [ -59.3, -3.133 ], [ -59.299, -3.133 ], [ -59.298, -3.133 ], [ -59.297, -3.133 ], [ -59.297, -3.132 ], [ -59.296, -3.132 ], [ -59.296, -3.131 ], [ -59.295, -3.13 ], [ -59.292, -3.13 ], [ -59.289, -3.129 ], [ -59.288, -3.129 ], [ -59.286, -3.128 ], [ -59.284, -3.128 ], [ -59.283, -3.128 ], [ -59.279, -3.127 ], [ -59.277, -3.127 ], [ -59.275, -3.127 ], [ -59.274, -3.126 ], [ -59.273, -3.126 ], [ -59.272, -3.126 ], [ -59.271, -3.126 ], [ -59.27, -3.126 ], [ -59.269, -3.127 ], [ -59.266, -3.127 ], [ -59.265, -3.128 ], [ -59.264, -3.128 ], [ -59.262, -3.129 ], [ -59.261, -3.13 ], [ -59.26, -3.13 ], [ -59.259, -3.13 ], [ -59.258, -3.13 ], [ -59.257, -3.131 ], [ -59.256, -3.131 ], [ -59.255, -3.131 ], [ -59.254, -3.132 ], [ -59.252, -3.133 ], [ -59.25, -3.133 ], [ -59.249, -3.134 ], [ -59.248, -3.134 ], [ -59.247, -3.135 ], [ -59.245, -3.135 ], [ -59.245, -3.136 ], [ -59.244, -3.136 ], [ -59.243, -3.137 ], [ -59.242, -3.137 ], [ -59.242, -3.138 ], [ -59.241, -3.138 ], [ -59.24, -3.138 ], [ -59.239, -3.139 ], [ -59.238, -3.139 ], [ -59.236, -3.139 ], [ -59.235, -3.14 ], [ -59.233, -3.14 ], [ -59.232, -3.141 ], [ -59.23, -3.141 ], [ -59.229, -3.141 ], [ -59.228, -3.142 ], [ -59.226, -3.143 ], [ -59.224, -3.143 ], [ -59.224, -3.144 ], [ -59.223, -3.144 ], [ -59.222, -3.144 ], [ -59.221, -3.145 ], [ -59.22, -3.145 ], [ -59.219, -3.145 ], [ -59.218, -3.146 ], [ -59.217, -3.146 ], [ -59.216, -3.146 ], [ -59.214, -3.147 ], [ -59.212, -3.148 ], [ -59.211, -3.149 ], [ -59.21, -3.149 ], [ -59.208, -3.15 ], [ -59.207, -3.151 ], [ -59.206, -3.151 ], [ -59.205, -3.152 ], [ -59.204, -3.153 ], [ -59.203, -3.153 ], [ -59.202, -3.154 ], [ -59.201, -3.154 ], [ -59.2, -3.155 ], [ -59.199, -3.155 ], [ -59.199, -3.156 ], [ -59.198, -3.156 ], [ -59.197, -3.157 ], [ -59.196, -3.157 ], [ -59.195, -3.157 ], [ -59.193, -3.157 ], [ -59.193, -3.158 ], [ -59.192, -3.158 ], [ -59.191, -3.158 ], [ -59.19, -3.158 ], [ -59.189, -3.159 ], [ -59.188, -3.159 ], [ -59.185, -3.16 ], [ -59.183, -3.161 ], [ -59.181, -3.162 ], [ -59.179, -3.163 ], [ -59.178, -3.164 ], [ -59.176, -3.165 ], [ -59.174, -3.165 ], [ -59.171, -3.166 ], [ -59.169, -3.167 ], [ -59.165, -3.168 ], [ -59.162, -3.168 ], [ -59.161, -3.168 ], [ -59.159, -3.168 ], [ -59.158, -3.168 ], [ -59.157, -3.168 ], [ -59.157, -3.169 ], [ -59.156, -3.169 ], [ -59.155, -3.169 ], [ -59.154, -3.169 ], [ -59.153, -3.169 ], [ -59.153, -3.17 ], [ -59.152, -3.17 ], [ -59.151, -3.17 ], [ -59.146, -3.172 ], [ -59.149, -3.174 ], [ -59.15, -3.175 ], [ -59.151, -3.175 ], [ -59.152, -3.176 ], [ -59.153, -3.176 ], [ -59.154, -3.176 ], [ -59.155, -3.177 ], [ -59.156, -3.177 ], [ -59.157, -3.177 ], [ -59.158, -3.177 ], [ -59.159, -3.177 ], [ -59.159, -3.178 ], [ -59.16, -3.178 ], [ -59.161, -3.178 ], [ -59.162, -3.178 ], [ -59.163, -3.178 ], [ -59.164, -3.178 ], [ -59.165, -3.178 ], [ -59.166, -3.178 ], [ -59.167, -3.178 ], [ -59.168, -3.178 ], [ -59.169, -3.178 ], [ -59.17, -3.178 ], [ -59.171, -3.178 ], [ -59.172, -3.178 ], [ -59.173, -3.178 ], [ -59.174, -3.177 ], [ -59.175, -3.177 ], [ -59.176, -3.177 ], [ -59.177, -3.177 ], [ -59.179, -3.177 ], [ -59.18, -3.177 ], [ -59.181, -3.177 ], [ -59.182, -3.177 ], [ -59.183, -3.177 ], [ -59.184, -3.177 ], [ -59.185, -3.177 ], [ -59.186, -3.177 ], [ -59.187, -3.177 ], [ -59.188, -3.177 ], [ -59.189, -3.177 ], [ -59.19, -3.177 ], [ -59.19, -3.178 ], [ -59.191, -3.178 ], [ -59.192, -3.178 ], [ -59.193, -3.178 ], [ -59.194, -3.178 ], [ -59.195, -3.178 ], [ -59.196, -3.178 ], [ -59.197, -3.178 ], [ -59.198, -3.179 ], [ -59.199, -3.179 ], [ -59.2, -3.179 ], [ -59.201, -3.179 ], [ -59.202, -3.179 ], [ -59.203, -3.179 ], [ -59.204, -3.179 ], [ -59.205, -3.179 ], [ -59.206, -3.179 ], [ -59.207, -3.179 ], [ -59.208, -3.179 ], [ -59.209, -3.179 ], [ -59.21, -3.179 ], [ -59.211, -3.179 ], [ -59.212, -3.179 ], [ -59.213, -3.179 ], [ -59.213, -3.178 ], [ -59.214, -3.178 ], [ -59.215, -3.178 ], [ -59.216, -3.178 ], [ -59.216, -3.177 ], [ -59.217, -3.177 ], [ -59.218, -3.177 ], [ -59.219, -3.176 ], [ -59.22, -3.176 ], [ -59.221, -3.175 ], [ -59.222, -3.175 ], [ -59.223, -3.174 ], [ -59.224, -3.174 ], [ -59.224, -3.173 ], [ -59.225, -3.173 ], [ -59.227, -3.172 ], [ -59.228, -3.171 ], [ -59.229, -3.17 ], [ -59.23, -3.169 ], [ -59.232, -3.168 ], [ -59.233, -3.167 ], [ -59.234, -3.166 ], [ -59.235, -3.165 ], [ -59.237, -3.164 ], [ -59.238, -3.163 ], [ -59.239, -3.162 ], [ -59.24, -3.162 ], [ -59.241, -3.161 ], [ -59.242, -3.161 ], [ -59.243, -3.16 ], [ -59.244, -3.16 ], [ -59.244, -3.159 ], [ -59.245, -3.159 ], [ -59.246, -3.159 ], [ -59.247, -3.158 ], [ -59.248, -3.158 ], [ -59.249, -3.158 ], [ -59.249, -3.157 ], [ -59.25, -3.157 ], [ -59.251, -3.157 ], [ -59.252, -3.156 ], [ -59.253, -3.156 ], [ -59.254, -3.156 ], [ -59.255, -3.155 ], [ -59.256, -3.155 ], [ -59.257, -3.155 ], [ -59.258, -3.155 ], [ -59.259, -3.154 ], [ -59.26, -3.154 ], [ -59.261, -3.154 ], [ -59.262, -3.154 ], [ -59.263, -3.154 ], [ -59.264, -3.154 ], [ -59.265, -3.154 ], [ -59.266, -3.154 ], [ -59.267, -3.154 ], [ -59.268, -3.154 ], [ -59.273, -3.153 ], [ -59.274, -3.153 ], [ -59.277, -3.153 ], [ -59.28, -3.153 ], [ -59.281, -3.153 ], [ -59.285, -3.152 ], [ -59.288, -3.152 ], [ -59.301, -3.15 ], [ -59.304, -3.149 ], [ -59.327, -3.147 ], [ -59.334, -3.147 ], [ -59.341, -3.147 ], [ -59.343, -3.147 ], [ -59.344, -3.147 ], [ -59.346, -3.148 ], [ -59.36, -3.15 ], [ -59.374, -3.155 ], [ -59.381, -3.158 ], [ -59.387, -3.159 ], [ -59.392, -3.159 ], [ -59.395, -3.159 ], [ -59.397, -3.159 ], [ -59.405, -3.157 ], [ -59.415, -3.154 ], [ -59.448, -3.142 ], [ -59.45, -3.141 ], [ -59.47, -3.133 ], [ -59.471, -3.132 ], [ -59.477, -3.13 ], [ -59.482, -3.129 ], [ -59.49, -3.128 ], [ -59.492, -3.128 ], [ -59.506, -3.127 ], [ -59.516, -3.126 ], [ -59.529, -3.124 ], [ -59.536, -3.123 ], [ -59.543, -3.122 ], [ -59.549, -3.12 ], [ -59.567, -3.113 ], [ -59.583, -3.106 ], [ -59.583, -3.105 ], [ -59.607, -3.094 ], [ -59.61, -3.093 ], [ -59.623, -3.087 ], [ -59.626, -3.086 ], [ -59.646, -3.079 ], [ -59.664, -3.072 ], [ -59.684, -3.066 ], [ -59.705, -3.062 ], [ -59.707, -3.061 ], [ -59.713, -3.061 ], [ -59.718, -3.061 ], [ -59.733, -3.062 ], [ -59.747, -3.062 ], [ -59.77, -3.064 ], [ -59.785, -3.068 ], [ -59.809, -3.074 ], [ -59.814, -3.076 ], [ -59.82, -3.078 ], [ -59.821, -3.079 ], [ -59.833, -3.085 ], [ -59.837, -3.087 ], [ -59.842, -3.089 ], [ -59.851, -3.094 ], [ -59.858, -3.097 ], [ -59.87, -3.105 ], [ -59.871, -3.105 ], [ -59.878, -3.111 ], [ -59.891, -3.121 ], [ -59.896, -3.128 ], [ -59.916, -3.139 ], [ -59.926, -3.145 ], [ -59.932, -3.15 ], [ -59.938, -3.155 ], [ -59.944, -3.16 ], [ -59.944, -3.161 ], [ -59.948, -3.166 ], [ -59.95, -3.168 ], [ -59.953, -3.172 ], [ -59.955, -3.175 ], [ -59.958, -3.178 ], [ -59.965, -3.181 ], [ -59.971, -3.183 ], [ -59.98, -3.184 ], [ -59.985, -3.184 ], [ -59.991, -3.183 ], [ -59.996, -3.181 ], [ -60.001, -3.178 ], [ -60.008, -3.173 ], [ -60.014, -3.17 ], [ -60.021, -3.166 ], [ -60.026, -3.161 ], [ -60.03, -3.158 ], [ -60.034, -3.156 ], [ -60.037, -3.154 ], [ -60.039, -3.154 ], [ -60.042, -3.154 ], [ -60.047, -3.153 ], [ -60.051, -3.152 ], [ -60.054, -3.151 ], [ -60.058, -3.149 ], [ -60.064, -3.145 ], [ -60.07, -3.141 ], [ -60.08, -3.134 ], [ -60.088, -3.131 ], [ -60.091, -3.132 ], [ -60.092, -3.132 ], [ -60.094, -3.133 ], [ -60.095, -3.134 ], [ -60.099, -3.139 ], [ -60.102, -3.142 ], [ -60.103, -3.143 ], [ -60.104, -3.144 ], [ -60.106, -3.144 ], [ -60.108, -3.143 ], [ -60.11, -3.142 ], [ -60.112, -3.141 ], [ -60.116, -3.139 ], [ -60.121, -3.138 ], [ -60.124, -3.136 ], [ -60.128, -3.134 ], [ -60.133, -3.132 ], [ -60.136, -3.13 ], [ -60.139, -3.127 ], [ -60.141, -3.125 ], [ -60.145, -3.123 ], [ -60.148, -3.123 ], [ -60.151, -3.123 ], [ -60.154, -3.123 ], [ -60.158, -3.123 ], [ -60.161, -3.122 ], [ -60.164, -3.121 ], [ -60.167, -3.119 ], [ -60.169, -3.117 ], [ -60.173, -3.114 ], [ -60.176, -3.111 ], [ -60.185, -3.102 ], [ -60.19, -3.096 ], [ -60.195, -3.094 ], [ -60.197, -3.092 ], [ -60.202, -3.089 ], [ -60.211, -3.085 ], [ -60.218, -3.082 ], [ -60.222, -3.081 ], [ -60.225, -3.079 ], [ -60.228, -3.078 ], [ -60.231, -3.077 ], [ -60.236, -3.076 ], [ -60.238, -3.076 ], [ -60.24, -3.075 ], [ -60.244, -3.075 ], [ -60.248, -3.076 ], [ -60.251, -3.076 ], [ -60.259, -3.078 ], [ -60.266, -3.08 ], [ -60.269, -3.08 ], [ -60.273, -3.08 ], [ -60.278, -3.078 ], [ -60.283, -3.077 ], [ -60.287, -3.074 ], [ -60.29, -3.071 ], [ -60.293, -3.069 ], [ -60.296, -3.068 ], [ -60.3, -3.066 ], [ -60.303, -3.065 ], [ -60.306, -3.065 ], [ -60.308, -3.064 ], [ -60.309, -3.064 ], [ -60.313, -3.065 ], [ -60.32, -3.069 ], [ -60.322, -3.071 ], [ -60.323, -3.072 ], [ -60.325, -3.075 ], [ -60.325, -3.077 ], [ -60.327, -3.082 ], [ -60.329, -3.086 ], [ -60.329, -3.087 ], [ -60.332, -3.09 ], [ -60.335, -3.092 ], [ -60.336, -3.093 ], [ -60.339, -3.093 ], [ -60.341, -3.094 ], [ -60.344, -3.094 ], [ -60.346, -3.093 ], [ -60.351, -3.092 ], [ -60.358, -3.089 ], [ -60.36, -3.089 ], [ -60.362, -3.089 ], [ -60.364, -3.089 ], [ -60.366, -3.089 ], [ -60.371, -3.089 ], [ -60.375, -3.09 ], [ -60.386, -3.091 ], [ -60.389, -3.091 ], [ -60.395, -3.091 ], [ -60.402, -3.09 ], [ -60.409, -3.089 ], [ -60.412, -3.089 ], [ -60.419, -3.087 ], [ -60.424, -3.086 ], [ -60.428, -3.085 ], [ -60.433, -3.084 ], [ -60.437, -3.084 ], [ -60.438, -3.084 ], [ -60.441, -3.085 ], [ -60.442, -3.085 ], [ -60.443, -3.085 ], [ -60.444, -3.085 ], [ -60.445, -3.084 ], [ -60.447, -3.08 ], [ -60.451, -3.072 ], [ -60.452, -3.068 ], [ -60.453, -3.066 ], [ -60.454, -3.064 ], [ -60.454, -3.063 ], [ -60.457, -3.063 ], [ -60.458, -3.063 ], [ -60.459, -3.064 ], [ -60.459, -3.066 ], [ -60.461, -3.072 ], [ -60.461, -3.073 ], [ -60.461, -3.076 ], [ -60.462, -3.079 ], [ -60.463, -3.079 ], [ -60.465, -3.081 ], [ -60.47, -3.084 ], [ -60.472, -3.085 ], [ -60.474, -3.086 ], [ -60.476, -3.086 ], [ -60.478, -3.086 ], [ -60.479, -3.085 ], [ -60.481, -3.084 ], [ -60.482, -3.083 ], [ -60.484, -3.081 ], [ -60.486, -3.079 ], [ -60.487, -3.076 ], [ -60.49, -3.072 ], [ -60.493, -3.068 ], [ -60.501, -3.058 ], [ -60.507, -3.053 ], [ -60.511, -3.049 ], [ -60.514, -3.047 ], [ -60.515, -3.047 ], [ -60.516, -3.046 ], [ -60.53, -3.037 ], [ -60.531, -3.036 ], [ -60.538, -3.031 ], [ -60.541, -3.029 ], [ -60.543, -3.028 ], [ -60.545, -3.028 ], [ -60.548, -3.028 ], [ -60.553, -3.027 ], [ -60.558, -3.027 ], [ -60.563, -3.026 ], [ -60.567, -3.024 ], [ -60.57, -3.023 ], [ -60.573, -3.021 ], [ -60.576, -3.019 ], [ -60.577, -3.018 ], [ -60.58, -3.014 ], [ -60.58, -3.013 ], [ -60.582, -3.01 ], [ -60.582, -3.009 ], [ -60.583, -3.006 ], [ -60.585, -3.001 ], [ -60.586, -2.996 ], [ -60.587, -2.993 ], [ -60.588, -2.989 ], [ -60.589, -2.988 ], [ -60.591, -2.984 ], [ -60.593, -2.981 ], [ -60.595, -2.978 ], [ -60.602, -2.967 ], [ -60.605, -2.963 ], [ -60.612, -2.956 ], [ -60.625, -2.945 ], [ -60.631, -2.941 ], [ -60.636, -2.939 ], [ -60.644, -2.933 ], [ -60.647, -2.931 ], [ -60.648, -2.929 ], [ -60.65, -2.926 ], [ -60.651, -2.924 ], [ -60.654, -2.919 ], [ -60.662, -2.911 ], [ -60.664, -2.909 ], [ -60.668, -2.904 ], [ -60.672, -2.9 ], [ -60.673, -2.9 ], [ -60.679, -2.894 ], [ -60.68, -2.893 ], [ -60.681, -2.892 ], [ -60.682, -2.89 ], [ -60.682, -2.889 ], [ -60.682, -2.888 ], [ -60.682, -2.887 ], [ -60.682, -2.886 ], [ -60.681, -2.886 ], [ -60.68, -2.885 ], [ -60.679, -2.886 ], [ -60.678, -2.886 ], [ -60.676, -2.886 ], [ -60.675, -2.886 ], [ -60.673, -2.887 ], [ -60.671, -2.887 ], [ -60.67, -2.887 ], [ -60.669, -2.887 ], [ -60.668, -2.886 ], [ -60.668, -2.885 ], [ -60.668, -2.884 ], [ -60.668, -2.883 ], [ -60.669, -2.882 ], [ -60.671, -2.88 ], [ -60.673, -2.878 ], [ -60.675, -2.878 ], [ -60.684, -2.874 ], [ -60.687, -2.872 ], [ -60.689, -2.871 ], [ -60.695, -2.867 ], [ -60.697, -2.865 ], [ -60.704, -2.859 ], [ -60.707, -2.856 ], [ -60.708, -2.856 ], [ -60.717, -2.849 ], [ -60.721, -2.846 ], [ -60.729, -2.84 ], [ -60.732, -2.837 ], [ -60.74, -2.831 ], [ -60.746, -2.827 ], [ -60.754, -2.821 ], [ -60.763, -2.77 ], [ -60.765, -2.757 ], [ -60.766, -2.754 ], [ -60.781, -2.668 ], [ -60.783, -2.656 ], [ -60.788, -2.628 ], [ -60.788, -2.625 ], [ -60.801, -2.548 ], [ -60.802, -2.541 ], [ -60.803, -2.54 ], [ -60.8, -2.535 ], [ -60.8, -2.534 ], [ -60.798, -2.532 ], [ -60.797, -2.53 ], [ -60.797, -2.529 ], [ -60.796, -2.529 ], [ -60.796, -2.528 ], [ -60.796, -2.527 ], [ -60.795, -2.526 ], [ -60.795, -2.525 ], [ -60.795, -2.524 ], [ -60.795, -2.523 ], [ -60.795, -2.522 ], [ -60.795, -2.519 ], [ -60.795, -2.514 ], [ -60.795, -2.513 ], [ -60.795, -2.51 ], [ -60.795, -2.509 ], [ -60.794, -2.505 ], [ -60.794, -2.503 ], [ -60.793, -2.499 ], [ -60.792, -2.492 ], [ -60.791, -2.488 ], [ -60.791, -2.487 ], [ -60.791, -2.486 ], [ -60.791, -2.485 ], [ -60.79, -2.482 ], [ -60.789, -2.481 ], [ -60.788, -2.477 ], [ -60.785, -2.47 ], [ -60.783, -2.467 ], [ -60.782, -2.465 ], [ -60.781, -2.463 ], [ -60.779, -2.461 ], [ -60.779, -2.46 ], [ -60.778, -2.459 ], [ -60.777, -2.459 ], [ -60.777, -2.458 ], [ -60.776, -2.458 ], [ -60.775, -2.456 ], [ -60.774, -2.456 ], [ -60.773, -2.455 ], [ -60.772, -2.455 ], [ -60.771, -2.455 ], [ -60.77, -2.454 ], [ -60.769, -2.454 ], [ -60.766, -2.454 ], [ -60.761, -2.453 ], [ -60.76, -2.452 ], [ -60.756, -2.451 ], [ -60.754, -2.451 ], [ -60.752, -2.45 ], [ -60.751, -2.45 ], [ -60.75, -2.449 ], [ -60.749, -2.448 ], [ -60.748, -2.448 ], [ -60.747, -2.447 ], [ -60.745, -2.445 ], [ -60.744, -2.443 ], [ -60.743, -2.442 ], [ -60.743, -2.441 ], [ -60.743, -2.44 ], [ -60.742, -2.439 ], [ -60.742, -2.437 ], [ -60.742, -2.436 ], [ -60.742, -2.434 ], [ -60.742, -2.432 ], [ -60.742, -2.431 ], [ -60.743, -2.43 ], [ -60.743, -2.429 ], [ -60.744, -2.428 ], [ -60.745, -2.428 ], [ -60.746, -2.427 ], [ -60.747, -2.427 ], [ -60.748, -2.427 ], [ -60.749, -2.428 ], [ -60.75, -2.428 ], [ -60.751, -2.428 ], [ -60.751, -2.427 ], [ -60.752, -2.426 ], [ -60.752, -2.425 ], [ -60.751, -2.425 ], [ -60.751, -2.424 ], [ -60.751, -2.423 ], [ -60.751, -2.422 ], [ -60.752, -2.421 ], [ -60.752, -2.42 ], [ -60.752, -2.419 ], [ -60.752, -2.418 ], [ -60.753, -2.418 ], [ -60.753, -2.417 ], [ -60.753, -2.416 ], [ -60.752, -2.416 ], [ -60.752, -2.415 ], [ -60.752, -2.414 ], [ -60.753, -2.414 ], [ -60.753, -2.413 ], [ -60.753, -2.412 ], [ -60.754, -2.412 ], [ -60.755, -2.412 ], [ -60.756, -2.411 ], [ -60.757, -2.411 ], [ -60.758, -2.411 ], [ -60.762, -2.41 ], [ -60.763, -2.41 ], [ -60.764, -2.41 ], [ -60.765, -2.41 ], [ -60.766, -2.409 ], [ -60.767, -2.409 ], [ -60.767, -2.408 ], [ -60.768, -2.408 ], [ -60.768, -2.407 ], [ -60.768, -2.406 ], [ -60.768, -2.404 ], [ -60.767, -2.401 ], [ -60.767, -2.399 ], [ -60.767, -2.398 ], [ -60.766, -2.397 ], [ -60.765, -2.396 ], [ -60.764, -2.396 ], [ -60.76, -2.394 ], [ -60.756, -2.393 ], [ -60.741, -2.387 ], [ -60.737, -2.386 ], [ -60.737, -2.385 ], [ -60.736, -2.385 ], [ -60.732, -2.384 ], [ -60.732, -2.383 ], [ -60.731, -2.383 ], [ -60.731, -2.382 ], [ -60.731, -2.381 ], [ -60.731, -2.38 ], [ -60.731, -2.379 ], [ -60.732, -2.378 ], [ -60.732, -2.377 ], [ -60.733, -2.376 ], [ -60.734, -2.376 ], [ -60.734, -2.375 ], [ -60.735, -2.374 ], [ -60.735, -2.373 ], [ -60.735, -2.372 ], [ -60.735, -2.371 ], [ -60.735, -2.37 ], [ -60.734, -2.37 ], [ -60.734, -2.369 ], [ -60.733, -2.369 ], [ -60.733, -2.368 ], [ -60.732, -2.368 ], [ -60.731, -2.368 ], [ -60.73, -2.368 ], [ -60.729, -2.369 ], [ -60.727, -2.37 ], [ -60.726, -2.37 ], [ -60.724, -2.371 ], [ -60.723, -2.372 ], [ -60.722, -2.373 ], [ -60.721, -2.373 ], [ -60.721, -2.374 ], [ -60.718, -2.374 ], [ -60.716, -2.375 ], [ -60.715, -2.375 ], [ -60.714, -2.375 ], [ -60.713, -2.375 ], [ -60.712, -2.375 ], [ -60.711, -2.374 ], [ -60.71, -2.374 ], [ -60.709, -2.373 ], [ -60.708, -2.373 ], [ -60.708, -2.372 ], [ -60.708, -2.371 ], [ -60.708, -2.37 ], [ -60.708, -2.369 ], [ -60.708, -2.368 ], [ -60.709, -2.367 ], [ -60.71, -2.366 ], [ -60.711, -2.365 ], [ -60.712, -2.364 ], [ -60.713, -2.364 ], [ -60.713, -2.363 ], [ -60.714, -2.363 ], [ -60.714, -2.362 ], [ -60.715, -2.362 ], [ -60.715, -2.361 ], [ -60.715, -2.36 ], [ -60.716, -2.36 ], [ -60.716, -2.359 ], [ -60.716, -2.358 ], [ -60.717, -2.357 ], [ -60.717, -2.356 ], [ -60.716, -2.356 ], [ -60.715, -2.356 ], [ -60.714, -2.355 ], [ -60.714, -2.354 ], [ -60.714, -2.353 ], [ -60.714, -2.352 ], [ -60.713, -2.352 ], [ -60.712, -2.353 ], [ -60.712, -2.354 ], [ -60.712, -2.355 ], [ -60.712, -2.356 ], [ -60.712, -2.357 ], [ -60.713, -2.358 ], [ -60.714, -2.358 ], [ -60.714, -2.359 ], [ -60.713, -2.359 ], [ -60.712, -2.359 ], [ -60.711, -2.359 ], [ -60.71, -2.359 ], [ -60.709, -2.36 ], [ -60.708, -2.359 ], [ -60.707, -2.358 ], [ -60.707, -2.357 ], [ -60.707, -2.356 ], [ -60.707, -2.355 ], [ -60.707, -2.353 ], [ -60.708, -2.352 ], [ -60.709, -2.351 ], [ -60.71, -2.351 ], [ -60.711, -2.35 ], [ -60.712, -2.349 ], [ -60.713, -2.349 ], [ -60.714, -2.348 ], [ -60.714, -2.347 ], [ -60.715, -2.347 ], [ -60.715, -2.346 ], [ -60.715, -2.345 ], [ -60.714, -2.344 ], [ -60.714, -2.343 ], [ -60.713, -2.342 ], [ -60.713, -2.341 ], [ -60.712, -2.341 ], [ -60.711, -2.341 ], [ -60.71, -2.342 ], [ -60.71, -2.343 ], [ -60.709, -2.344 ], [ -60.709, -2.345 ], [ -60.708, -2.346 ], [ -60.708, -2.347 ], [ -60.707, -2.347 ], [ -60.706, -2.347 ], [ -60.705, -2.348 ], [ -60.704, -2.348 ], [ -60.703, -2.348 ], [ -60.702, -2.348 ], [ -60.701, -2.348 ], [ -60.701, -2.349 ], [ -60.701, -2.35 ], [ -60.701, -2.351 ], [ -60.701, -2.352 ], [ -60.7, -2.353 ], [ -60.699, -2.354 ], [ -60.698, -2.354 ], [ -60.697, -2.355 ], [ -60.696, -2.355 ], [ -60.696, -2.354 ], [ -60.695, -2.354 ], [ -60.695, -2.353 ], [ -60.695, -2.352 ], [ -60.694, -2.352 ], [ -60.694, -2.351 ], [ -60.694, -2.35 ], [ -60.694, -2.349 ], [ -60.694, -2.348 ], [ -60.695, -2.347 ], [ -60.695, -2.346 ], [ -60.695, -2.345 ], [ -60.695, -2.344 ], [ -60.695, -2.343 ], [ -60.695, -2.342 ], [ -60.696, -2.341 ], [ -60.696, -2.34 ], [ -60.697, -2.34 ], [ -60.698, -2.34 ], [ -60.699, -2.34 ], [ -60.699, -2.339 ], [ -60.7, -2.339 ], [ -60.701, -2.339 ], [ -60.701, -2.338 ], [ -60.701, -2.337 ], [ -60.702, -2.337 ], [ -60.702, -2.338 ], [ -60.703, -2.338 ], [ -60.704, -2.338 ], [ -60.705, -2.337 ], [ -60.706, -2.337 ], [ -60.706, -2.336 ], [ -60.707, -2.336 ], [ -60.707, -2.335 ], [ -60.708, -2.335 ], [ -60.708, -2.334 ], [ -60.709, -2.333 ], [ -60.709, -2.332 ], [ -60.71, -2.332 ], [ -60.71, -2.331 ], [ -60.71, -2.33 ], [ -60.71, -2.329 ], [ -60.71, -2.328 ], [ -60.71, -2.327 ], [ -60.711, -2.327 ], [ -60.711, -2.326 ], [ -60.711, -2.325 ], [ -60.711, -2.324 ], [ -60.711, -2.323 ], [ -60.711, -2.322 ], [ -60.711, -2.321 ], [ -60.711, -2.32 ], [ -60.71, -2.319 ], [ -60.709, -2.319 ], [ -60.708, -2.319 ], [ -60.707, -2.318 ], [ -60.706, -2.318 ], [ -60.706, -2.317 ], [ -60.705, -2.317 ], [ -60.705, -2.316 ], [ -60.704, -2.315 ], [ -60.703, -2.314 ], [ -60.702, -2.313 ], [ -60.701, -2.312 ], [ -60.701, -2.311 ], [ -60.7, -2.31 ], [ -60.699, -2.31 ], [ -60.699, -2.309 ], [ -60.699, -2.308 ], [ -60.7, -2.308 ], [ -60.701, -2.308 ], [ -60.701, -2.307 ], [ -60.702, -2.307 ], [ -60.702, -2.306 ], [ -60.702, -2.305 ], [ -60.702, -2.304 ], [ -60.702, -2.303 ], [ -60.703, -2.303 ], [ -60.703, -2.302 ], [ -60.702, -2.302 ], [ -60.702, -2.301 ], [ -60.702, -2.3 ], [ -60.701, -2.3 ], [ -60.701, -2.299 ], [ -60.7, -2.298 ], [ -60.7, -2.297 ], [ -60.701, -2.297 ], [ -60.702, -2.297 ], [ -60.703, -2.297 ], [ -60.704, -2.298 ], [ -60.705, -2.298 ], [ -60.706, -2.298 ], [ -60.706, -2.297 ], [ -60.706, -2.296 ], [ -60.706, -2.295 ], [ -60.705, -2.294 ], [ -60.705, -2.293 ], [ -60.705, -2.292 ], [ -60.705, -2.291 ], [ -60.705, -2.29 ], [ -60.704, -2.29 ], [ -60.703, -2.289 ], [ -60.703, -2.288 ], [ -60.704, -2.288 ], [ -60.704, -2.287 ], [ -60.705, -2.286 ], [ -60.704, -2.286 ], [ -60.704, -2.285 ], [ -60.704, -2.284 ], [ -60.704, -2.283 ], [ -60.705, -2.283 ], [ -60.706, -2.283 ], [ -60.707, -2.283 ], [ -60.708, -2.283 ], [ -60.709, -2.283 ], [ -60.709, -2.282 ], [ -60.71, -2.281 ], [ -60.71, -2.28 ], [ -60.711, -2.28 ], [ -60.712, -2.28 ], [ -60.712, -2.281 ], [ -60.712, -2.282 ], [ -60.712, -2.283 ], [ -60.713, -2.284 ], [ -60.714, -2.284 ], [ -60.714, -2.283 ], [ -60.714, -2.282 ], [ -60.714, -2.281 ], [ -60.714, -2.28 ], [ -60.715, -2.28 ], [ -60.715, -2.279 ], [ -60.716, -2.278 ], [ -60.716, -2.277 ], [ -60.717, -2.277 ], [ -60.717, -2.276 ], [ -60.718, -2.275 ], [ -60.718, -2.274 ], [ -60.718, -2.273 ], [ -60.718, -2.272 ], [ -60.718, -2.271 ], [ -60.718, -2.27 ], [ -60.717, -2.269 ], [ -60.717, -2.268 ], [ -60.716, -2.268 ], [ -60.716, -2.269 ], [ -60.716, -2.27 ], [ -60.716, -2.271 ], [ -60.716, -2.272 ], [ -60.715, -2.272 ], [ -60.714, -2.272 ], [ -60.714, -2.271 ], [ -60.714, -2.27 ], [ -60.714, -2.269 ], [ -60.714, -2.268 ], [ -60.713, -2.268 ], [ -60.713, -2.267 ], [ -60.712, -2.267 ], [ -60.711, -2.267 ], [ -60.71, -2.267 ], [ -60.709, -2.267 ], [ -60.708, -2.267 ], [ -60.707, -2.267 ], [ -60.706, -2.266 ], [ -60.705, -2.266 ], [ -60.704, -2.265 ], [ -60.703, -2.265 ], [ -60.702, -2.265 ], [ -60.702, -2.264 ], [ -60.701, -2.264 ], [ -60.7, -2.263 ], [ -60.7, -2.262 ], [ -60.699, -2.262 ], [ -60.699, -2.261 ], [ -60.699, -2.26 ], [ -60.699, -2.259 ], [ -60.7, -2.259 ], [ -60.7, -2.258 ], [ -60.701, -2.258 ], [ -60.702, -2.258 ], [ -60.703, -2.258 ], [ -60.704, -2.258 ], [ -60.704, -2.259 ], [ -60.703, -2.26 ], [ -60.703, -2.261 ], [ -60.704, -2.261 ], [ -60.704, -2.262 ], [ -60.705, -2.262 ], [ -60.706, -2.262 ], [ -60.706, -2.261 ], [ -60.706, -2.26 ], [ -60.706, -2.259 ], [ -60.706, -2.258 ], [ -60.705, -2.258 ], [ -60.705, -2.257 ], [ -60.704, -2.256 ], [ -60.703, -2.256 ], [ -60.702, -2.255 ], [ -60.701, -2.255 ], [ -60.7, -2.254 ], [ -60.699, -2.254 ], [ -60.699, -2.253 ], [ -60.699, -2.252 ], [ -60.698, -2.252 ], [ -60.698, -2.251 ], [ -60.697, -2.251 ], [ -60.697, -2.25 ], [ -60.696, -2.25 ], [ -60.696, -2.249 ], [ -60.695, -2.249 ], [ -60.695, -2.248 ], [ -60.695, -2.247 ], [ -60.694, -2.247 ], [ -60.694, -2.246 ], [ -60.694, -2.245 ], [ -60.693, -2.245 ], [ -60.693, -2.244 ], [ -60.692, -2.244 ], [ -60.691, -2.244 ], [ -60.691, -2.243 ], [ -60.691, -2.242 ], [ -60.692, -2.241 ], [ -60.692, -2.24 ], [ -60.693, -2.239 ], [ -60.693, -2.238 ], [ -60.694, -2.238 ], [ -60.694, -2.237 ], [ -60.695, -2.237 ], [ -60.696, -2.237 ], [ -60.697, -2.237 ], [ -60.698, -2.237 ], [ -60.698, -2.238 ], [ -60.699, -2.238 ], [ -60.699, -2.237 ], [ -60.699, -2.236 ], [ -60.698, -2.236 ], [ -60.698, -2.235 ], [ -60.698, -2.234 ], [ -60.699, -2.234 ], [ -60.699, -2.233 ], [ -60.7, -2.233 ], [ -60.699, -2.232 ], [ -60.698, -2.232 ], [ -60.698, -2.231 ], [ -60.698, -2.23 ], [ -60.698, -2.229 ], [ -60.699, -2.229 ], [ -60.699, -2.228 ], [ -60.698, -2.228 ], [ -60.697, -2.227 ], [ -60.697, -2.226 ], [ -60.698, -2.226 ], [ -60.698, -2.225 ], [ -60.699, -2.225 ], [ -60.699, -2.224 ], [ -60.7, -2.224 ], [ -60.701, -2.224 ], [ -60.701, -2.223 ], [ -60.701, -2.222 ], [ -60.7, -2.222 ], [ -60.7, -2.221 ], [ -60.7, -2.22 ], [ -60.701, -2.22 ], [ -60.701, -2.221 ], [ -60.702, -2.221 ], [ -60.702, -2.22 ], [ -60.702, -2.219 ], [ -60.702, -2.218 ], [ -60.703, -2.218 ], [ -60.704, -2.218 ], [ -60.704, -2.217 ], [ -60.705, -2.217 ], [ -60.705, -2.218 ], [ -60.706, -2.218 ], [ -60.707, -2.218 ], [ -60.707, -2.219 ], [ -60.707, -2.22 ], [ -60.707, -2.221 ], [ -60.708, -2.221 ], [ -60.708, -2.222 ], [ -60.709, -2.222 ], [ -60.709, -2.223 ], [ -60.71, -2.223 ], [ -60.71, -2.224 ], [ -60.711, -2.224 ], [ -60.712, -2.224 ], [ -60.712, -2.223 ], [ -60.712, -2.222 ], [ -60.713, -2.222 ], [ -60.713, -2.223 ], [ -60.713, -2.224 ], [ -60.714, -2.224 ], [ -60.715, -2.224 ], [ -60.715, -2.223 ], [ -60.715, -2.222 ], [ -60.715, -2.221 ], [ -60.716, -2.221 ], [ -60.717, -2.22 ], [ -60.718, -2.22 ], [ -60.718, -2.219 ], [ -60.719, -2.219 ], [ -60.719, -2.218 ], [ -60.72, -2.218 ], [ -60.72, -2.217 ], [ -60.721, -2.217 ], [ -60.721, -2.216 ], [ -60.721, -2.215 ], [ -60.722, -2.215 ], [ -60.722, -2.214 ], [ -60.723, -2.214 ], [ -60.723, -2.213 ], [ -60.724, -2.213 ], [ -60.725, -2.212 ], [ -60.725, -2.211 ], [ -60.726, -2.211 ], [ -60.726, -2.21 ], [ -60.725, -2.21 ], [ -60.725, -2.209 ], [ -60.726, -2.209 ], [ -60.727, -2.209 ], [ -60.728, -2.209 ], [ -60.728, -2.21 ], [ -60.729, -2.21 ], [ -60.73, -2.21 ], [ -60.73, -2.209 ], [ -60.729, -2.209 ], [ -60.729, -2.208 ], [ -60.729, -2.207 ], [ -60.728, -2.207 ], [ -60.728, -2.206 ], [ -60.727, -2.206 ], [ -60.726, -2.206 ], [ -60.726, -2.205 ], [ -60.726, -2.204 ], [ -60.727, -2.204 ], [ -60.728, -2.204 ], [ -60.728, -2.203 ], [ -60.728, -2.202 ], [ -60.727, -2.202 ], [ -60.727, -2.201 ], [ -60.726, -2.201 ], [ -60.726, -2.2 ], [ -60.727, -2.2 ], [ -60.727, -2.199 ], [ -60.728, -2.199 ], [ -60.728, -2.198 ], [ -60.728, -2.197 ], [ -60.729, -2.197 ], [ -60.73, -2.197 ], [ -60.731, -2.197 ], [ -60.731, -2.196 ], [ -60.732, -2.196 ], [ -60.732, -2.197 ], [ -60.733, -2.198 ], [ -60.734, -2.198 ], [ -60.735, -2.198 ], [ -60.736, -2.198 ], [ -60.736, -2.197 ], [ -60.737, -2.197 ], [ -60.737, -2.196 ], [ -60.736, -2.196 ], [ -60.736, -2.195 ], [ -60.736, -2.194 ], [ -60.737, -2.194 ], [ -60.737, -2.193 ], [ -60.736, -2.193 ], [ -60.736, -2.192 ], [ -60.735, -2.192 ], [ -60.735, -2.191 ], [ -60.736, -2.191 ], [ -60.737, -2.191 ], [ -60.737, -2.19 ], [ -60.738, -2.19 ], [ -60.739, -2.189 ], [ -60.74, -2.189 ], [ -60.74, -2.188 ], [ -60.741, -2.188 ], [ -60.741, -2.187 ], [ -60.742, -2.187 ], [ -60.742, -2.186 ], [ -60.742, -2.185 ], [ -60.741, -2.185 ], [ -60.74, -2.185 ], [ -60.739, -2.185 ], [ -60.738, -2.185 ], [ -60.737, -2.185 ], [ -60.737, -2.184 ], [ -60.736, -2.184 ], [ -60.736, -2.183 ], [ -60.735, -2.183 ], [ -60.734, -2.183 ], [ -60.734, -2.182 ], [ -60.733, -2.182 ], [ -60.732, -2.182 ], [ -60.731, -2.182 ], [ -60.731, -2.183 ], [ -60.73, -2.183 ], [ -60.729, -2.182 ], [ -60.728, -2.182 ], [ -60.728, -2.181 ], [ -60.727, -2.181 ], [ -60.727, -2.18 ], [ -60.728, -2.179 ], [ -60.728, -2.178 ], [ -60.728, -2.177 ], [ -60.728, -2.176 ], [ -60.728, -2.175 ], [ -60.727, -2.175 ], [ -60.727, -2.176 ], [ -60.727, -2.177 ], [ -60.726, -2.178 ], [ -60.725, -2.178 ], [ -60.725, -2.179 ], [ -60.724, -2.179 ], [ -60.723, -2.179 ], [ -60.722, -2.179 ], [ -60.721, -2.179 ], [ -60.72, -2.179 ], [ -60.719, -2.179 ], [ -60.718, -2.179 ], [ -60.718, -2.178 ], [ -60.717, -2.178 ], [ -60.717, -2.177 ], [ -60.718, -2.177 ], [ -60.718, -2.176 ], [ -60.719, -2.176 ], [ -60.719, -2.175 ], [ -60.72, -2.175 ], [ -60.721, -2.174 ], [ -60.722, -2.174 ], [ -60.722, -2.173 ], [ -60.722, -2.172 ], [ -60.721, -2.172 ], [ -60.72, -2.172 ], [ -60.719, -2.172 ], [ -60.718, -2.172 ], [ -60.717, -2.173 ], [ -60.716, -2.174 ], [ -60.716, -2.175 ], [ -60.715, -2.175 ], [ -60.715, -2.174 ], [ -60.714, -2.174 ], [ -60.714, -2.173 ], [ -60.713, -2.173 ], [ -60.713, -2.172 ], [ -60.712, -2.172 ], [ -60.712, -2.173 ], [ -60.711, -2.173 ], [ -60.711, -2.172 ], [ -60.71, -2.172 ], [ -60.71, -2.173 ], [ -60.709, -2.173 ], [ -60.709, -2.172 ], [ -60.709, -2.171 ], [ -60.708, -2.171 ], [ -60.707, -2.171 ], [ -60.707, -2.172 ], [ -60.707, -2.173 ], [ -60.706, -2.173 ], [ -60.706, -2.172 ], [ -60.705, -2.172 ], [ -60.704, -2.171 ], [ -60.704, -2.172 ], [ -60.703, -2.172 ], [ -60.702, -2.172 ], [ -60.702, -2.171 ], [ -60.701, -2.171 ], [ -60.701, -2.172 ], [ -60.7, -2.172 ], [ -60.7, -2.173 ], [ -60.7, -2.174 ], [ -60.699, -2.174 ], [ -60.699, -2.173 ], [ -60.698, -2.173 ], [ -60.697, -2.173 ], [ -60.696, -2.173 ], [ -60.695, -2.173 ], [ -60.694, -2.172 ], [ -60.695, -2.172 ], [ -60.695, -2.171 ], [ -60.695, -2.17 ], [ -60.695, -2.169 ], [ -60.695, -2.168 ], [ -60.695, -2.167 ], [ -60.696, -2.167 ], [ -60.696, -2.166 ], [ -60.696, -2.165 ], [ -60.696, -2.164 ], [ -60.696, -2.163 ], [ -60.695, -2.163 ], [ -60.695, -2.162 ], [ -60.694, -2.161 ], [ -60.694, -2.16 ], [ -60.693, -2.16 ], [ -60.692, -2.16 ], [ -60.691, -2.16 ], [ -60.69, -2.16 ], [ -60.69, -2.159 ], [ -60.689, -2.159 ], [ -60.689, -2.158 ], [ -60.688, -2.158 ], [ -60.688, -2.157 ], [ -60.688, -2.156 ], [ -60.687, -2.156 ], [ -60.686, -2.156 ], [ -60.685, -2.156 ], [ -60.685, -2.155 ], [ -60.684, -2.155 ], [ -60.683, -2.155 ], [ -60.682, -2.155 ], [ -60.682, -2.154 ], [ -60.681, -2.154 ], [ -60.681, -2.155 ], [ -60.68, -2.155 ], [ -60.68, -2.156 ], [ -60.679, -2.156 ], [ -60.679, -2.155 ], [ -60.679, -2.154 ], [ -60.679, -2.153 ], [ -60.678, -2.153 ], [ -60.678, -2.152 ], [ -60.679, -2.152 ], [ -60.679, -2.151 ], [ -60.678, -2.151 ], [ -60.677, -2.151 ], [ -60.677, -2.15 ], [ -60.676, -2.15 ], [ -60.676, -2.149 ], [ -60.677, -2.149 ], [ -60.677, -2.148 ], [ -60.677, -2.147 ], [ -60.678, -2.147 ], [ -60.678, -2.146 ], [ -60.677, -2.146 ], [ -60.677, -2.145 ], [ -60.677, -2.144 ], [ -60.676, -2.144 ], [ -60.675, -2.144 ], [ -60.675, -2.143 ], [ -60.675, -2.142 ], [ -60.674, -2.142 ], [ -60.674, -2.143 ], [ -60.673, -2.143 ], [ -60.673, -2.142 ], [ -60.672, -2.142 ], [ -60.671, -2.142 ], [ -60.671, -2.141 ], [ -60.67, -2.141 ], [ -60.67, -2.142 ], [ -60.669, -2.142 ], [ -60.669, -2.141 ], [ -60.669, -2.14 ], [ -60.668, -2.14 ], [ -60.668, -2.139 ], [ -60.669, -2.139 ], [ -60.669, -2.138 ], [ -60.668, -2.138 ], [ -60.668, -2.137 ], [ -60.668, -2.136 ], [ -60.667, -2.136 ], [ -60.667, -2.135 ], [ -60.666, -2.135 ], [ -60.666, -2.134 ], [ -60.666, -2.133 ], [ -60.665, -2.133 ], [ -60.665, -2.132 ], [ -60.664, -2.132 ], [ -60.663, -2.132 ], [ -60.663, -2.131 ], [ -60.664, -2.131 ], [ -60.665, -2.131 ], [ -60.666, -2.131 ], [ -60.666, -2.13 ], [ -60.666, -2.129 ], [ -60.667, -2.128 ], [ -60.667, -2.127 ], [ -60.666, -2.126 ], [ -60.666, -2.125 ], [ -60.666, -2.124 ], [ -60.667, -2.124 ], [ -60.668, -2.124 ], [ -60.669, -2.124 ], [ -60.67, -2.124 ], [ -60.671, -2.124 ], [ -60.672, -2.125 ], [ -60.673, -2.125 ], [ -60.673, -2.124 ], [ -60.673, -2.123 ], [ -60.673, -2.122 ], [ -60.673, -2.121 ], [ -60.673, -2.12 ], [ -60.673, -2.119 ], [ -60.673, -2.118 ], [ -60.673, -2.117 ], [ -60.672, -2.117 ], [ -60.672, -2.116 ], [ -60.671, -2.116 ], [ -60.671, -2.115 ], [ -60.672, -2.115 ], [ -60.673, -2.115 ], [ -60.674, -2.115 ], [ -60.674, -2.114 ], [ -60.675, -2.114 ], [ -60.676, -2.114 ], [ -60.677, -2.114 ], [ -60.677, -2.113 ], [ -60.678, -2.113 ], [ -60.679, -2.113 ], [ -60.679, -2.112 ], [ -60.679, -2.111 ], [ -60.68, -2.111 ], [ -60.681, -2.111 ], [ -60.681, -2.112 ], [ -60.682, -2.112 ], [ -60.682, -2.111 ], [ -60.683, -2.111 ], [ -60.683, -2.11 ], [ -60.684, -2.11 ], [ -60.684, -2.109 ], [ -60.684, -2.108 ], [ -60.683, -2.108 ], [ -60.683, -2.107 ], [ -60.682, -2.107 ], [ -60.682, -2.106 ], [ -60.682, -2.105 ], [ -60.681, -2.105 ], [ -60.68, -2.105 ], [ -60.68, -2.104 ], [ -60.679, -2.104 ], [ -60.678, -2.104 ], [ -60.677, -2.104 ], [ -60.676, -2.104 ], [ -60.676, -2.105 ], [ -60.675, -2.105 ], [ -60.675, -2.106 ], [ -60.675, -2.107 ], [ -60.674, -2.107 ], [ -60.674, -2.106 ], [ -60.673, -2.106 ], [ -60.673, -2.105 ], [ -60.672, -2.105 ], [ -60.672, -2.106 ], [ -60.671, -2.106 ], [ -60.671, -2.105 ], [ -60.671, -2.104 ], [ -60.671, -2.103 ], [ -60.671, -2.102 ], [ -60.672, -2.101 ], [ -60.672, -2.099 ], [ -60.672, -2.098 ], [ -60.671, -2.098 ], [ -60.671, -2.097 ], [ -60.672, -2.097 ], [ -60.672, -2.096 ], [ -60.672, -2.095 ], [ -60.672, -2.094 ], [ -60.672, -2.093 ], [ -60.672, -2.092 ], [ -60.672, -2.091 ], [ -60.673, -2.091 ], [ -60.674, -2.091 ], [ -60.674, -2.09 ], [ -60.674, -2.089 ], [ -60.673, -2.088 ], [ -60.673, -2.087 ], [ -60.673, -2.086 ], [ -60.672, -2.086 ], [ -60.672, -2.087 ], [ -60.671, -2.087 ], [ -60.671, -2.088 ], [ -60.67, -2.088 ], [ -60.669, -2.088 ], [ -60.669, -2.087 ], [ -60.67, -2.086 ], [ -60.67, -2.085 ], [ -60.67, -2.084 ], [ -60.67, -2.083 ], [ -60.67, -2.082 ], [ -60.671, -2.082 ], [ -60.672, -2.082 ], [ -60.672, -2.081 ], [ -60.672, -2.08 ], [ -60.671, -2.08 ], [ -60.671, -2.081 ], [ -60.67, -2.081 ], [ -60.67, -2.08 ], [ -60.67, -2.079 ], [ -60.67, -2.078 ], [ -60.67, -2.077 ], [ -60.669, -2.076 ], [ -60.668, -2.076 ], [ -60.668, -2.075 ], [ -60.667, -2.075 ], [ -60.667, -2.074 ], [ -60.666, -2.073 ], [ -60.665, -2.073 ], [ -60.664, -2.073 ], [ -60.663, -2.073 ], [ -60.663, -2.074 ], [ -60.663, -2.075 ], [ -60.664, -2.075 ], [ -60.664, -2.076 ], [ -60.663, -2.077 ], [ -60.662, -2.077 ], [ -60.661, -2.077 ], [ -60.66, -2.077 ], [ -60.659, -2.077 ], [ -60.659, -2.076 ], [ -60.658, -2.076 ], [ -60.658, -2.075 ], [ -60.657, -2.075 ], [ -60.656, -2.074 ], [ -60.655, -2.074 ], [ -60.654, -2.074 ], [ -60.654, -2.073 ], [ -60.653, -2.073 ], [ -60.653, -2.074 ], [ -60.652, -2.074 ], [ -60.652, -2.073 ], [ -60.652, -2.072 ], [ -60.652, -2.071 ], [ -60.652, -2.07 ], [ -60.652, -2.069 ], [ -60.652, -2.068 ], [ -60.653, -2.068 ], [ -60.654, -2.068 ], [ -60.654, -2.067 ], [ -60.653, -2.067 ], [ -60.652, -2.067 ], [ -60.652, -2.066 ], [ -60.651, -2.066 ], [ -60.65, -2.066 ], [ -60.649, -2.066 ], [ -60.648, -2.066 ], [ -60.647, -2.066 ], [ -60.647, -2.065 ], [ -60.646, -2.065 ], [ -60.645, -2.065 ], [ -60.644, -2.065 ], [ -60.643, -2.066 ], [ -60.643, -2.067 ], [ -60.642, -2.067 ], [ -60.641, -2.068 ], [ -60.641, -2.067 ], [ -60.641, -2.066 ], [ -60.641, -2.065 ], [ -60.641, -2.064 ], [ -60.642, -2.064 ], [ -60.642, -2.063 ], [ -60.642, -2.062 ], [ -60.643, -2.062 ], [ -60.643, -2.061 ], [ -60.644, -2.061 ], [ -60.644, -2.06 ], [ -60.644, -2.059 ], [ -60.644, -2.058 ], [ -60.643, -2.058 ], [ -60.643, -2.057 ], [ -60.642, -2.057 ], [ -60.642, -2.056 ], [ -60.641, -2.056 ], [ -60.64, -2.056 ], [ -60.64, -2.057 ], [ -60.639, -2.057 ], [ -60.638, -2.057 ], [ -60.637, -2.057 ], [ -60.637, -2.058 ], [ -60.636, -2.058 ], [ -60.635, -2.058 ], [ -60.634, -2.058 ], [ -60.634, -2.057 ], [ -60.633, -2.057 ], [ -60.633, -2.056 ], [ -60.633, -2.055 ], [ -60.632, -2.054 ], [ -60.631, -2.054 ], [ -60.63, -2.053 ], [ -60.63, -2.054 ], [ -60.629, -2.054 ], [ -60.629, -2.053 ], [ -60.628, -2.053 ], [ -60.627, -2.053 ], [ -60.626, -2.053 ], [ -60.625, -2.053 ], [ -60.625, -2.052 ], [ -60.625, -2.051 ], [ -60.624, -2.051 ], [ -60.624, -2.05 ], [ -60.624, -2.049 ], [ -60.623, -2.049 ], [ -60.623, -2.048 ], [ -60.622, -2.048 ], [ -60.621, -2.047 ], [ -60.622, -2.047 ], [ -60.622, -2.046 ], [ -60.621, -2.046 ], [ -60.621, -2.045 ], [ -60.621, -2.044 ], [ -60.621, -2.043 ], [ -60.62, -2.043 ], [ -60.619, -2.043 ], [ -60.619, -2.042 ], [ -60.619, -2.041 ], [ -60.618, -2.041 ], [ -60.618, -2.04 ], [ -60.618, -2.039 ], [ -60.617, -2.039 ], [ -60.617, -2.038 ], [ -60.617, -2.037 ], [ -60.617, -2.036 ], [ -60.616, -2.036 ], [ -60.616, -2.035 ], [ -60.615, -2.035 ], [ -60.615, -2.034 ], [ -60.614, -2.034 ], [ -60.614, -2.033 ], [ -60.613, -2.033 ], [ -60.613, -2.032 ], [ -60.613, -2.031 ], [ -60.614, -2.031 ], [ -60.614, -2.03 ], [ -60.613, -2.03 ], [ -60.612, -2.03 ], [ -60.612, -2.029 ], [ -60.612, -2.028 ], [ -60.611, -2.028 ], [ -60.611, -2.027 ], [ -60.611, -2.026 ], [ -60.611, -2.025 ], [ -60.611, -2.024 ], [ -60.612, -2.024 ], [ -60.612, -2.023 ], [ -60.612, -2.022 ], [ -60.611, -2.022 ], [ -60.611, -2.021 ], [ -60.611, -2.02 ], [ -60.61, -2.02 ], [ -60.61, -2.019 ], [ -60.609, -2.019 ], [ -60.609, -2.018 ], [ -60.608, -2.018 ], [ -60.608, -2.017 ], [ -60.608, -2.016 ], [ -60.608, -2.015 ], [ -60.607, -2.015 ], [ -60.606, -2.015 ], [ -60.606, -2.014 ], [ -60.607, -2.014 ], [ -60.607, -2.013 ], [ -60.607, -2.012 ], [ -60.607, -2.011 ], [ -60.608, -2.011 ], [ -60.608, -2.01 ], [ -60.608, -2.009 ], [ -60.607, -2.009 ], [ -60.607, -2.008 ], [ -60.606, -2.008 ], [ -60.606, -2.007 ], [ -60.607, -2.007 ], [ -60.607, -2.006 ], [ -60.606, -2.005 ], [ -60.605, -2.005 ], [ -60.605, -2.004 ], [ -60.604, -2.004 ], [ -60.603, -2.004 ], [ -60.602, -2.004 ], [ -60.601, -2.004 ], [ -60.601, -2.003 ], [ -60.601, -2.002 ], [ -60.6, -2.002 ], [ -60.6, -2.001 ], [ -60.599, -2.001 ], [ -60.598, -2.001 ], [ -60.598, -2.0 ], [ -60.597, -2.0 ], [ -60.597, -1.999 ], [ -60.596, -1.999 ], [ -60.596, -1.998 ], [ -60.595, -1.998 ], [ -60.594, -1.998 ], [ -60.593, -1.998 ], [ -60.592, -1.998 ], [ -60.591, -1.998 ], [ -60.591, -1.997 ], [ -60.59, -1.997 ], [ -60.589, -1.997 ], [ -60.588, -1.997 ], [ -60.588, -1.998 ], [ -60.587, -1.998 ], [ -60.586, -1.998 ], [ -60.586, -1.997 ], [ -60.586, -1.996 ], [ -60.585, -1.996 ], [ -60.584, -1.996 ], [ -60.584, -1.997 ], [ -60.583, -1.997 ], [ -60.582, -1.997 ], [ -60.582, -1.998 ], [ -60.581, -1.998 ], [ -60.58, -1.999 ], [ -60.58, -1.998 ], [ -60.579, -1.998 ], [ -60.579, -1.999 ], [ -60.578, -1.999 ], [ -60.577, -1.999 ], [ -60.577, -2.0 ], [ -60.576, -2.0 ], [ -60.575, -2.0 ], [ -60.574, -2.0 ], [ -60.573, -2.0 ], [ -60.573, -1.999 ], [ -60.572, -1.999 ], [ -60.571, -1.999 ], [ -60.57, -1.999 ], [ -60.569, -1.999 ], [ -60.569, -2.0 ], [ -60.568, -2.0 ], [ -60.567, -2.0 ], [ -60.566, -2.0 ], [ -60.565, -2.0 ], [ -60.565, -2.001 ], [ -60.564, -2.001 ], [ -60.563, -2.001 ], [ -60.563, -2.002 ], [ -60.562, -2.002 ], [ -60.561, -2.002 ], [ -60.561, -2.003 ], [ -60.56, -2.003 ], [ -60.56, -2.004 ], [ -60.56, -2.005 ], [ -60.559, -2.005 ], [ -60.559, -2.006 ], [ -60.558, -2.006 ], [ -60.558, -2.007 ], [ -60.557, -2.007 ], [ -60.556, -2.007 ], [ -60.555, -2.007 ], [ -60.555, -2.006 ], [ -60.554, -2.006 ], [ -60.553, -2.006 ], [ -60.553, -2.005 ], [ -60.552, -2.005 ], [ -60.551, -2.005 ], [ -60.551, -2.006 ], [ -60.55, -2.006 ], [ -60.549, -2.006 ], [ -60.549, -2.005 ], [ -60.548, -2.005 ], [ -60.547, -2.005 ], [ -60.547, -2.004 ], [ -60.546, -2.004 ], [ -60.546, -2.003 ], [ -60.545, -2.003 ], [ -60.544, -2.003 ], [ -60.544, -2.004 ], [ -60.543, -2.004 ], [ -60.543, -2.003 ], [ -60.542, -2.003 ], [ -60.542, -2.004 ], [ -60.541, -2.004 ], [ -60.54, -2.004 ], [ -60.539, -2.004 ], [ -60.539, -2.005 ], [ -60.539, -2.006 ], [ -60.538, -2.006 ], [ -60.537, -2.006 ], [ -60.536, -2.006 ], [ -60.535, -2.006 ], [ -60.534, -2.006 ], [ -60.533, -2.006 ], [ -60.533, -2.007 ], [ -60.532, -2.007 ], [ -60.532, -2.008 ], [ -60.532, -2.009 ], [ -60.531, -2.009 ], [ -60.53, -2.009 ], [ -60.53, -2.01 ], [ -60.529, -2.01 ], [ -60.528, -2.01 ], [ -60.527, -2.011 ], [ -60.526, -2.012 ], [ -60.525, -2.012 ], [ -60.525, -2.013 ], [ -60.524, -2.013 ], [ -60.523, -2.013 ], [ -60.523, -2.012 ], [ -60.522, -2.012 ], [ -60.522, -2.011 ], [ -60.521, -2.011 ], [ -60.521, -2.01 ], [ -60.52, -2.01 ], [ -60.52, -2.011 ], [ -60.519, -2.011 ], [ -60.518, -2.011 ], [ -60.518, -2.012 ], [ -60.517, -2.012 ], [ -60.517, -2.013 ], [ -60.516, -2.013 ], [ -60.515, -2.013 ], [ -60.515, -2.014 ], [ -60.514, -2.014 ], [ -60.513, -2.014 ], [ -60.512, -2.014 ], [ -60.512, -2.015 ], [ -60.511, -2.015 ], [ -60.511, -2.014 ], [ -60.51, -2.014 ], [ -60.509, -2.015 ], [ -60.509, -2.016 ], [ -60.508, -2.016 ], [ -60.508, -2.017 ], [ -60.507, -2.017 ], [ -60.506, -2.017 ], [ -60.505, -2.017 ], [ -60.503, -2.018 ], [ -60.502, -2.018 ], [ -60.501, -2.018 ], [ -60.5, -2.018 ], [ -60.499, -2.017 ], [ -60.499, -2.016 ], [ -60.498, -2.016 ], [ -60.497, -2.016 ], [ -60.497, -2.017 ], [ -60.496, -2.017 ], [ -60.495, -2.018 ], [ -60.494, -2.018 ], [ -60.493, -2.018 ], [ -60.492, -2.018 ], [ -60.491, -2.018 ], [ -60.49, -2.018 ], [ -60.489, -2.018 ], [ -60.488, -2.018 ], [ -60.487, -2.018 ], [ -60.487, -2.017 ], [ -60.486, -2.017 ], [ -60.485, -2.017 ], [ -60.484, -2.017 ], [ -60.483, -2.017 ], [ -60.482, -2.017 ], [ -60.481, -2.017 ], [ -60.481, -2.016 ], [ -60.48, -2.016 ], [ -60.479, -2.016 ], [ -60.478, -2.016 ], [ -60.477, -2.015 ], [ -60.476, -2.015 ], [ -60.476, -2.014 ], [ -60.475, -2.014 ], [ -60.474, -2.014 ], [ -60.473, -2.014 ], [ -60.473, -2.013 ], [ -60.472, -2.013 ], [ -60.472, -2.014 ], [ -60.471, -2.014 ], [ -60.47, -2.014 ], [ -60.469, -2.014 ], [ -60.468, -2.014 ], [ -60.468, -2.013 ], [ -60.467, -2.013 ], [ -60.466, -2.013 ], [ -60.466, -2.012 ], [ -60.465, -2.011 ], [ -60.464, -2.011 ], [ -60.463, -2.011 ], [ -60.462, -2.01 ], [ -60.461, -2.01 ], [ -60.461, -2.009 ], [ -60.46, -2.009 ], [ -60.46, -2.008 ], [ -60.459, -2.008 ], [ -60.458, -2.008 ], [ -60.458, -2.009 ], [ -60.457, -2.009 ], [ -60.456, -2.009 ], [ -60.456, -2.01 ], [ -60.455, -2.01 ], [ -60.454, -2.01 ], [ -60.453, -2.01 ], [ -60.452, -2.009 ], [ -60.451, -2.009 ], [ -60.45, -2.009 ], [ -60.45, -2.008 ], [ -60.449, -2.008 ], [ -60.448, -2.008 ], [ -60.448, -2.007 ], [ -60.448, -2.006 ], [ -60.447, -2.007 ], [ -60.446, -2.007 ], [ -60.445, -2.007 ], [ -60.444, -2.007 ], [ -60.443, -2.007 ], [ -60.442, -2.007 ], [ -60.442, -2.008 ], [ -60.441, -2.008 ], [ -60.44, -2.008 ], [ -60.44, -2.007 ], [ -60.439, -2.006 ], [ -60.439, -2.005 ], [ -60.438, -2.005 ], [ -60.438, -2.004 ], [ -60.437, -2.004 ], [ -60.436, -2.004 ], [ -60.435, -2.004 ], [ -60.435, -2.003 ], [ -60.433, -2.002 ], [ -60.431, -2.002 ], [ -60.43, -2.002 ], [ -60.429, -2.002 ], [ -60.429, -2.001 ], [ -60.428, -2.001 ], [ -60.427, -2.001 ], [ -60.426, -2.001 ], [ -60.425, -2.001 ], [ -60.424, -2.001 ], [ -60.423, -2.001 ], [ -60.422, -2.001 ], [ -60.421, -2.001 ], [ -60.421, -2.0 ], [ -60.42, -2.0 ], [ -60.419, -2.0 ], [ -60.419, -1.999 ], [ -60.418, -1.999 ], [ -60.418, -1.998 ], [ -60.417, -1.998 ], [ -60.416, -1.998 ], [ -60.415, -1.998 ], [ -60.415, -1.996 ], [ -60.415, -1.995 ], [ -60.415, -1.994 ], [ -60.414, -1.994 ], [ -60.413, -1.995 ], [ -60.412, -1.995 ], [ -60.412, -1.994 ], [ -60.411, -1.994 ], [ -60.41, -1.994 ], [ -60.409, -1.994 ], [ -60.409, -1.993 ], [ -60.409, -1.992 ], [ -60.409, -1.991 ], [ -60.408, -1.991 ], [ -60.408, -1.99 ], [ -60.408, -1.989 ], [ -60.409, -1.989 ], [ -60.409, -1.988 ], [ -60.409, -1.987 ], [ -60.407, -1.985 ], [ -60.404, -1.983 ], [ -60.401, -1.983 ], [ -60.4, -1.983 ], [ -60.398, -1.982 ], [ -60.397, -1.981 ], [ -60.396, -1.981 ], [ -60.396, -1.98 ], [ -60.395, -1.98 ], [ -60.394, -1.98 ], [ -60.393, -1.98 ], [ -60.393, -1.979 ], [ -60.392, -1.978 ], [ -60.391, -1.978 ], [ -60.39, -1.978 ], [ -60.389, -1.978 ], [ -60.389, -1.977 ], [ -60.388, -1.977 ], [ -60.388, -1.976 ], [ -60.388, -1.975 ], [ -60.387, -1.975 ], [ -60.384, -1.973 ], [ -60.383, -1.972 ], [ -60.382, -1.972 ], [ -60.381, -1.972 ], [ -60.379, -1.97 ], [ -60.377, -1.969 ], [ -60.376, -1.969 ], [ -60.375, -1.969 ], [ -60.374, -1.969 ], [ -60.374, -1.968 ], [ -60.373, -1.968 ], [ -60.373, -1.967 ], [ -60.372, -1.967 ], [ -60.371, -1.967 ], [ -60.37, -1.967 ], [ -60.37, -1.966 ], [ -60.369, -1.966 ], [ -60.369, -1.965 ], [ -60.368, -1.965 ], [ -60.367, -1.965 ], [ -60.367, -1.964 ], [ -60.366, -1.964 ], [ -60.366, -1.963 ], [ -60.364, -1.96 ], [ -60.362, -1.959 ], [ -60.359, -1.957 ], [ -60.357, -1.956 ], [ -60.355, -1.955 ], [ -60.351, -1.955 ], [ -60.348, -1.954 ], [ -60.343, -1.953 ], [ -60.342, -1.952 ], [ -60.258, -1.913 ], [ -60.263, -1.916 ], [ -60.267, -1.92 ], [ -60.268, -1.921 ], [ -60.271, -1.924 ], [ -60.272, -1.926 ], [ -60.273, -1.928 ], [ -60.274, -1.929 ], [ -60.275, -1.93 ], [ -60.276, -1.931 ], [ -60.278, -1.933 ], [ -60.279, -1.935 ], [ -60.279, -1.936 ], [ -60.282, -1.938 ], [ -60.285, -1.939 ], [ -60.289, -1.941 ], [ -60.291, -1.943 ], [ -60.293, -1.945 ], [ -60.293, -1.946 ], [ -60.295, -1.95 ], [ -60.296, -1.952 ], [ -60.296, -1.954 ], [ -60.296, -1.955 ], [ -60.296, -1.957 ], [ -60.295, -1.959 ], [ -60.292, -1.964 ], [ -60.29, -1.966 ], [ -60.289, -1.967 ], [ -60.287, -1.968 ], [ -60.285, -1.97 ], [ -60.282, -1.972 ], [ -60.28, -1.974 ], [ -60.278, -1.975 ], [ -60.276, -1.978 ], [ -60.274, -1.98 ], [ -60.273, -1.981 ], [ -60.271, -1.983 ], [ -60.268, -1.986 ], [ -60.267, -1.987 ], [ -60.262, -1.988 ], [ -60.261, -1.988 ], [ -60.258, -1.989 ], [ -60.257, -1.99 ], [ -60.256, -1.991 ], [ -60.255, -1.991 ], [ -60.252, -1.993 ], [ -60.251, -1.993 ], [ -60.249, -1.994 ], [ -60.246, -1.995 ], [ -60.245, -1.996 ], [ -60.243, -1.997 ], [ -60.242, -1.997 ], [ -60.242, -1.998 ], [ -60.24, -1.998 ], [ -60.238, -2.0 ], [ -60.237, -2.001 ], [ -60.236, -2.001 ], [ -60.235, -2.002 ], [ -60.234, -2.002 ], [ -60.233, -2.002 ], [ -60.232, -2.002 ], [ -60.232, -2.001 ], [ -60.231, -2.001 ], [ -60.23, -2.001 ], [ -60.229, -2.001 ], [ -60.228, -2.002 ], [ -60.227, -2.002 ], [ -60.226, -2.002 ], [ -60.225, -2.002 ], [ -60.225, -2.001 ], [ -60.224, -2.001 ], [ -60.224, -2.0 ], [ -60.223, -2.0 ], [ -60.222, -2.0 ], [ -60.221, -2.0 ], [ -60.22, -1.999 ], [ -60.219, -1.999 ], [ -60.218, -1.999 ], [ -60.218, -2.0 ], [ -60.218, -2.001 ], [ -60.218, -2.002 ], [ -60.217, -2.002 ], [ -60.217, -2.003 ], [ -60.216, -2.003 ], [ -60.216, -2.004 ], [ -60.215, -2.004 ], [ -60.215, -2.005 ], [ -60.214, -2.005 ], [ -60.214, -2.004 ], [ -60.213, -2.004 ], [ -60.212, -2.004 ], [ -60.212, -2.003 ], [ -60.211, -2.003 ], [ -60.21, -2.003 ], [ -60.209, -2.002 ], [ -60.208, -2.002 ], [ -60.207, -2.003 ], [ -60.206, -2.003 ], [ -60.205, -2.003 ], [ -60.204, -2.004 ], [ -60.203, -2.004 ], [ -60.202, -2.005 ], [ -60.202, -2.006 ], [ -60.202, -2.007 ], [ -60.201, -2.007 ], [ -60.201, -2.006 ], [ -60.2, -2.006 ], [ -60.2, -2.007 ], [ -60.199, -2.007 ], [ -60.198, -2.007 ], [ -60.198, -2.008 ], [ -60.198, -2.009 ], [ -60.197, -2.009 ], [ -60.197, -2.01 ], [ -60.197, -2.011 ], [ -60.197, -2.012 ], [ -60.197, -2.013 ], [ -60.196, -2.013 ], [ -60.195, -2.013 ], [ -60.194, -2.013 ], [ -60.193, -2.013 ], [ -60.192, -2.013 ], [ -60.192, -2.014 ], [ -60.191, -2.014 ], [ -60.191, -2.015 ], [ -60.19, -2.015 ], [ -60.19, -2.016 ], [ -60.189, -2.016 ], [ -60.189, -2.015 ], [ -60.188, -2.015 ], [ -60.187, -2.015 ], [ -60.186, -2.015 ], [ -60.185, -2.015 ], [ -60.185, -2.016 ], [ -60.184, -2.016 ], [ -60.184, -2.017 ], [ -60.183, -2.017 ], [ -60.183, -2.018 ], [ -60.183, -2.019 ], [ -60.183, -2.02 ], [ -60.182, -2.02 ], [ -60.181, -2.02 ], [ -60.18, -2.02 ], [ -60.18, -2.019 ], [ -60.179, -2.019 ], [ -60.179, -2.02 ], [ -60.178, -2.02 ], [ -60.177, -2.02 ], [ -60.177, -2.021 ], [ -60.176, -2.021 ], [ -60.175, -2.021 ], [ -60.175, -2.02 ], [ -60.174, -2.02 ], [ -60.174, -2.021 ], [ -60.174, -2.022 ], [ -60.175, -2.022 ], [ -60.175, -2.023 ], [ -60.175, -2.024 ], [ -60.174, -2.024 ], [ -60.173, -2.024 ], [ -60.173, -2.025 ], [ -60.172, -2.025 ], [ -60.172, -2.026 ], [ -60.171, -2.026 ], [ -60.17, -2.026 ], [ -60.17, -2.025 ], [ -60.169, -2.025 ], [ -60.169, -2.026 ], [ -60.169, -2.027 ], [ -60.169, -2.028 ], [ -60.168, -2.028 ], [ -60.167, -2.028 ], [ -60.166, -2.028 ], [ -60.165, -2.028 ], [ -60.165, -2.029 ], [ -60.164, -2.029 ], [ -60.163, -2.029 ], [ -60.162, -2.029 ], [ -60.162, -2.028 ], [ -60.161, -2.028 ], [ -60.16, -2.028 ], [ -60.16, -2.029 ], [ -60.16, -2.03 ], [ -60.16, -2.031 ], [ -60.159, -2.031 ], [ -60.158, -2.031 ], [ -60.157, -2.031 ], [ -60.157, -2.03 ], [ -60.156, -2.03 ], [ -60.155, -2.03 ], [ -60.155, -2.031 ], [ -60.154, -2.031 ], [ -60.154, -2.032 ], [ -60.153, -2.032 ], [ -60.152, -2.032 ], [ -60.152, -2.033 ], [ -60.153, -2.033 ], [ -60.153, -2.034 ], [ -60.154, -2.034 ], [ -60.154, -2.035 ], [ -60.153, -2.035 ], [ -60.153, -2.036 ], [ -60.152, -2.036 ], [ -60.152, -2.037 ], [ -60.152, -2.038 ], [ -60.151, -2.038 ], [ -60.151, -2.039 ], [ -60.151, -2.04 ], [ -60.15, -2.04 ], [ -60.15, -2.041 ], [ -60.15, -2.042 ], [ -60.149, -2.042 ], [ -60.149, -2.043 ], [ -60.148, -2.043 ], [ -60.148, -2.042 ], [ -60.147, -2.042 ], [ -60.146, -2.042 ], [ -60.145, -2.042 ], [ -60.145, -2.041 ], [ -60.144, -2.041 ], [ -60.143, -2.041 ], [ -60.142, -2.041 ], [ -60.141, -2.041 ], [ -60.141, -2.04 ], [ -60.14, -2.04 ], [ -60.139, -2.04 ], [ -60.139, -2.041 ], [ -60.139, -2.042 ], [ -60.139, -2.043 ], [ -60.138, -2.043 ], [ -60.138, -2.044 ], [ -60.138, -2.045 ], [ -60.137, -2.045 ], [ -60.137, -2.046 ], [ -60.136, -2.046 ], [ -60.136, -2.045 ], [ -60.135, -2.045 ], [ -60.135, -2.044 ], [ -60.134, -2.044 ], [ -60.133, -2.044 ], [ -60.133, -2.045 ], [ -60.133, -2.046 ], [ -60.132, -2.046 ], [ -60.131, -2.046 ], [ -60.13, -2.046 ], [ -60.13, -2.047 ], [ -60.129, -2.047 ], [ -60.129, -2.048 ], [ -60.128, -2.048 ], [ -60.128, -2.049 ], [ -60.127, -2.049 ], [ -60.126, -2.049 ], [ -60.125, -2.049 ], [ -60.125, -2.05 ], [ -60.124, -2.05 ], [ -60.123, -2.05 ], [ -60.122, -2.05 ], [ -60.121, -2.05 ], [ -60.121, -2.051 ], [ -60.12, -2.051 ], [ -60.119, -2.051 ], [ -60.119, -2.052 ], [ -60.118, -2.052 ], [ -60.117, -2.052 ], [ -60.116, -2.052 ], [ -60.116, -2.053 ], [ -60.115, -2.053 ], [ -60.114, -2.053 ], [ -60.113, -2.053 ], [ -60.113, -2.054 ], [ -60.112, -2.054 ], [ -60.112, -2.055 ], [ -60.111, -2.055 ], [ -60.111, -2.056 ], [ -60.11, -2.056 ], [ -60.11, -2.057 ], [ -60.11, -2.058 ], [ -60.109, -2.058 ], [ -60.109, -2.059 ], [ -60.108, -2.059 ], [ -60.107, -2.059 ], [ -60.107, -2.06 ], [ -60.107, -2.061 ], [ -60.107, -2.062 ], [ -60.106, -2.062 ], [ -60.105, -2.062 ], [ -60.104, -2.062 ], [ -60.103, -2.062 ], [ -60.102, -2.062 ], [ -60.101, -2.062 ], [ -60.1, -2.062 ], [ -60.1, -2.061 ], [ -60.099, -2.061 ], [ -60.099, -2.06 ], [ -60.098, -2.06 ], [ -60.098, -2.059 ], [ -60.097, -2.059 ], [ -60.096, -2.059 ], [ -60.096, -2.06 ], [ -60.095, -2.06 ], [ -60.094, -2.06 ], [ -60.094, -2.059 ], [ -60.093, -2.059 ], [ -60.093, -2.06 ], [ -60.092, -2.06 ], [ -60.091, -2.06 ], [ -60.091, -2.061 ], [ -60.091, -2.062 ], [ -60.091, -2.063 ], [ -60.091, -2.064 ], [ -60.09, -2.064 ], [ -60.09, -2.065 ], [ -60.089, -2.065 ], [ -60.088, -2.065 ], [ -60.087, -2.065 ], [ -60.087, -2.066 ], [ -60.088, -2.066 ], [ -60.088, -2.067 ], [ -60.088, -2.068 ], [ -60.088, -2.069 ], [ -60.088, -2.07 ], [ -60.088, -2.071 ], [ -60.087, -2.071 ], [ -60.086, -2.071 ], [ -60.085, -2.071 ], [ -60.085, -2.07 ], [ -60.084, -2.07 ], [ -60.083, -2.07 ], [ -60.082, -2.07 ], [ -60.082, -2.071 ], [ -60.082, -2.072 ], [ -60.083, -2.073 ], [ -60.083, -2.074 ], [ -60.084, -2.075 ], [ -60.084, -2.076 ], [ -60.083, -2.076 ], [ -60.082, -2.076 ], [ -60.081, -2.076 ], [ -60.08, -2.076 ], [ -60.079, -2.076 ], [ -60.078, -2.076 ], [ -60.078, -2.077 ], [ -60.078, -2.078 ], [ -60.077, -2.079 ], [ -60.077, -2.08 ], [ -60.076, -2.08 ], [ -60.075, -2.08 ], [ -60.074, -2.08 ], [ -60.074, -2.081 ], [ -60.073, -2.081 ], [ -60.073, -2.082 ], [ -60.073, -2.083 ], [ -60.073, -2.084 ], [ -60.072, -2.084 ], [ -60.071, -2.084 ], [ -60.07, -2.084 ], [ -60.07, -2.085 ], [ -60.07, -2.086 ], [ -60.071, -2.086 ], [ -60.072, -2.086 ], [ -60.072, -2.087 ], [ -60.071, -2.087 ], [ -60.07, -2.087 ], [ -60.069, -2.087 ], [ -60.069, -2.088 ], [ -60.068, -2.088 ], [ -60.068, -2.087 ], [ -60.067, -2.087 ], [ -60.066, -2.088 ], [ -60.066, -2.089 ], [ -60.065, -2.089 ], [ -60.064, -2.089 ], [ -60.063, -2.089 ], [ -60.062, -2.089 ], [ -60.062, -2.088 ], [ -60.061, -2.088 ], [ -60.061, -2.089 ], [ -60.06, -2.089 ], [ -60.059, -2.089 ], [ -60.059, -2.09 ], [ -60.058, -2.09 ], [ -60.058, -2.091 ], [ -60.058, -2.092 ], [ -60.057, -2.092 ], [ -60.057, -2.093 ], [ -60.056, -2.093 ], [ -60.056, -2.094 ], [ -60.056, -2.095 ], [ -60.056, -2.096 ], [ -60.056, -2.097 ], [ -60.055, -2.097 ], [ -60.054, -2.097 ], [ -60.054, -2.098 ], [ -60.054, -2.099 ], [ -60.055, -2.099 ], [ -60.055, -2.1 ], [ -60.055, -2.101 ], [ -60.054, -2.101 ], [ -60.053, -2.101 ], [ -60.053, -2.102 ], [ -60.052, -2.102 ], [ -60.051, -2.102 ], [ -60.051, -2.103 ], [ -60.05, -2.103 ], [ -60.049, -2.103 ], [ -60.048, -2.103 ], [ -60.047, -2.103 ], [ -60.046, -2.103 ], [ -60.045, -2.103 ], [ -60.044, -2.103 ], [ -60.043, -2.103 ], [ -60.043, -2.102 ], [ -60.042, -2.101 ], [ -60.041, -2.101 ], [ -60.041, -2.1 ], [ -60.041, -2.099 ], [ -60.041, -2.098 ], [ -60.04, -2.098 ], [ -60.039, -2.098 ], [ -60.038, -2.098 ], [ -60.037, -2.098 ], [ -60.036, -2.098 ], [ -60.035, -2.098 ], [ -60.034, -2.098 ], [ -60.033, -2.098 ], [ -60.032, -2.098 ], [ -60.032, -2.099 ], [ -60.031, -2.099 ], [ -60.03, -2.099 ], [ -60.03, -2.098 ], [ -60.029, -2.098 ], [ -60.028, -2.098 ], [ -60.027, -2.098 ], [ -60.026, -2.098 ], [ -60.026, -2.099 ], [ -60.025, -2.099 ], [ -60.024, -2.099 ], [ -60.023, -2.099 ], [ -60.022, -2.099 ], [ -60.021, -2.099 ], [ -60.02, -2.1 ], [ -60.019, -2.1 ], [ -60.018, -2.1 ], [ -60.018, -2.101 ], [ -60.017, -2.101 ], [ -60.016, -2.101 ], [ -60.016, -2.102 ], [ -60.015, -2.102 ], [ -60.014, -2.102 ], [ -60.013, -2.102 ], [ -60.013, -2.103 ], [ -60.013, -2.104 ], [ -60.013, -2.105 ], [ -60.012, -2.105 ], [ -60.012, -2.106 ], [ -60.012, -2.107 ], [ -60.012, -2.108 ], [ -60.012, -2.109 ], [ -60.012, -2.11 ], [ -60.012, -2.111 ], [ -60.012, -2.112 ], [ -60.012, -2.113 ], [ -60.011, -2.113 ], [ -60.01, -2.113 ], [ -60.009, -2.113 ], [ -60.009, -2.112 ], [ -60.008, -2.112 ], [ -60.007, -2.112 ], [ -60.006, -2.112 ], [ -60.006, -2.113 ], [ -60.005, -2.113 ], [ -60.005, -2.114 ], [ -60.004, -2.114 ], [ -60.003, -2.114 ], [ -60.003, -2.115 ], [ -60.002, -2.115 ], [ -60.002, -2.116 ], [ -60.002, -2.117 ], [ -60.001, -2.117 ], [ -60.001, -2.118 ], [ -60.001, -2.119 ], [ -60.0, -2.119 ], [ -60.0, -2.12 ], [ -60.0, -2.121 ], [ -59.999, -2.121 ], [ -59.999, -2.12 ], [ -59.998, -2.12 ], [ -59.998, -2.119 ], [ -59.998, -2.118 ], [ -59.997, -2.118 ], [ -59.997, -2.117 ], [ -59.996, -2.117 ], [ -59.996, -2.116 ], [ -59.995, -2.116 ], [ -59.995, -2.115 ], [ -59.994, -2.115 ], [ -59.994, -2.114 ], [ -59.993, -2.114 ], [ -59.992, -2.114 ], [ -59.991, -2.114 ], [ -59.991, -2.115 ], [ -59.991, -2.116 ], [ -59.992, -2.116 ], [ -59.992, -2.117 ], [ -59.992, -2.118 ], [ -59.993, -2.118 ], [ -59.993, -2.119 ], [ -59.994, -2.12 ], [ -59.994, -2.121 ], [ -59.995, -2.121 ], [ -59.995, -2.122 ], [ -59.995, -2.123 ], [ -59.995, -2.124 ], [ -59.996, -2.125 ], [ -59.996, -2.126 ], [ -59.996, -2.127 ], [ -59.996, -2.128 ], [ -59.996, -2.129 ], [ -59.996, -2.13 ], [ -59.996, -2.131 ], [ -59.997, -2.131 ], [ -59.997, -2.132 ], [ -59.997, -2.133 ], [ -59.997, -2.134 ], [ -59.998, -2.135 ], [ -59.998, -2.136 ], [ -59.998, -2.137 ], [ -59.998, -2.138 ], [ -59.999, -2.139 ], [ -59.999, -2.14 ], [ -59.999, -2.142 ], [ -60.0, -2.142 ], [ -60.0, -2.143 ], [ -60.0, -2.144 ], [ -60.0, -2.145 ], [ -60.001, -2.146 ], [ -60.001, -2.147 ], [ -60.002, -2.149 ], [ -60.002, -2.15 ], [ -60.002, -2.151 ], [ -60.002, -2.152 ], [ -60.003, -2.152 ], [ -60.003, -2.153 ], [ -60.003, -2.154 ], [ -60.003, -2.155 ], [ -60.004, -2.156 ], [ -60.004, -2.157 ], [ -60.004, -2.159 ], [ -60.005, -2.159 ], [ -60.005, -2.16 ], [ -60.005, -2.161 ], [ -60.005, -2.162 ], [ -60.006, -2.163 ], [ -60.006, -2.164 ], [ -60.006, -2.165 ], [ -60.006, -2.166 ], [ -60.007, -2.166 ], [ -60.007, -2.167 ], [ -60.007, -2.168 ], [ -60.007, -2.169 ], [ -60.008, -2.17 ], [ -60.008, -2.171 ], [ -60.008, -2.172 ], [ -60.008, -2.173 ], [ -60.009, -2.173 ], [ -60.009, -2.174 ], [ -60.009, -2.175 ], [ -60.009, -2.176 ], [ -60.01, -2.177 ], [ -60.01, -2.178 ], [ -60.01, -2.179 ], [ -60.01, -2.18 ], [ -60.011, -2.18 ], [ -60.011, -2.181 ], [ -60.011, -2.182 ], [ -60.012, -2.183 ], [ -60.012, -2.184 ], [ -60.012, -2.185 ], [ -60.012, -2.186 ], [ -60.013, -2.187 ], [ -60.013, -2.188 ], [ -60.013, -2.189 ], [ -60.013, -2.19 ], [ -60.014, -2.19 ], [ -60.014, -2.191 ], [ -60.014, -2.192 ], [ -60.014, -2.193 ], [ -60.014, -2.194 ], [ -60.015, -2.196 ], [ -60.016, -2.198 ], [ -60.016, -2.199 ], [ -60.016, -2.2 ], [ -60.017, -2.201 ], [ -60.017, -2.202 ], [ -60.017, -2.203 ], [ -60.017, -2.204 ], [ -60.018, -2.205 ], [ -60.018, -2.206 ], [ -60.018, -2.207 ], [ -60.019, -2.208 ], [ -60.019, -2.209 ], [ -60.019, -2.21 ], [ -60.019, -2.211 ], [ -60.02, -2.211 ], [ -60.02, -2.212 ], [ -60.02, -2.213 ], [ -60.02, -2.214 ], [ -60.021, -2.216 ], [ -60.021, -2.217 ], [ -60.021, -2.218 ], [ -60.022, -2.218 ], [ -60.022, -2.219 ], [ -60.022, -2.22 ], [ -60.022, -2.221 ], [ -60.022, -2.222 ], [ -60.023, -2.222 ], [ -60.023, -2.223 ], [ -60.023, -2.224 ], [ -60.023, -2.225 ], [ -60.024, -2.226 ], [ -60.024, -2.227 ], [ -60.024, -2.228 ], [ -60.025, -2.229 ], [ -60.025, -2.23 ], [ -60.025, -2.231 ], [ -60.025, -2.232 ], [ -60.026, -2.232 ], [ -60.026, -2.233 ], [ -60.026, -2.234 ], [ -60.026, -2.235 ], [ -60.027, -2.236 ], [ -60.027, -2.237 ], [ -60.027, -2.238 ], [ -60.027, -2.239 ], [ -60.028, -2.24 ], [ -60.028, -2.241 ], [ -60.028, -2.242 ], [ -60.028, -2.243 ], [ -60.029, -2.243 ], [ -60.029, -2.244 ], [ -60.03, -2.245 ], [ -60.03, -2.246 ], [ -60.031, -2.247 ], [ -60.031, -2.248 ], [ -60.032, -2.248 ], [ -60.032, -2.249 ], [ -60.032, -2.25 ], [ -60.033, -2.25 ], [ -60.033, -2.251 ], [ -60.034, -2.252 ], [ -60.034, -2.253 ], [ -60.035, -2.253 ], [ -60.035, -2.254 ], [ -60.036, -2.255 ], [ -60.036, -2.256 ], [ -60.037, -2.257 ], [ -60.037, -2.258 ], [ -60.038, -2.258 ], [ -60.038, -2.259 ], [ -60.038, -2.26 ], [ -60.039, -2.26 ], [ -60.039, -2.261 ], [ -60.039, -2.262 ], [ -60.039, -2.263 ], [ -60.04, -2.263 ], [ -60.04, -2.264 ], [ -60.04, -2.265 ], [ -60.04, -2.266 ], [ -60.04, -2.267 ], [ -60.04, -2.268 ], [ -60.04, -2.269 ], [ -60.04, -2.27 ], [ -60.04, -2.271 ], [ -60.041, -2.271 ], [ -60.041, -2.272 ], [ -60.041, -2.273 ], [ -60.041, -2.274 ], [ -60.041, -2.275 ], [ -60.041, -2.276 ], [ -60.041, -2.277 ], [ -60.041, -2.278 ], [ -60.042, -2.28 ], [ -60.042, -2.281 ], [ -60.042, -2.282 ], [ -60.042, -2.283 ], [ -60.042, -2.284 ], [ -60.042, -2.285 ], [ -60.042, -2.286 ], [ -60.042, -2.287 ], [ -60.043, -2.287 ], [ -60.043, -2.288 ], [ -60.043, -2.289 ], [ -60.043, -2.29 ], [ -60.043, -2.291 ], [ -60.043, -2.292 ], [ -60.043, -2.293 ], [ -60.043, -2.294 ], [ -60.044, -2.295 ], [ -60.044, -2.296 ], [ -60.044, -2.297 ], [ -60.044, -2.298 ], [ -60.044, -2.299 ], [ -60.044, -2.3 ], [ -60.044, -2.301 ], [ -60.044, -2.302 ], [ -60.044, -2.303 ], [ -60.045, -2.303 ], [ -60.045, -2.304 ], [ -60.045, -2.305 ], [ -60.045, -2.306 ], [ -60.045, -2.307 ], [ -60.045, -2.308 ], [ -60.045, -2.309 ], [ -60.045, -2.31 ], [ -60.045, -2.311 ], [ -60.046, -2.312 ], [ -60.046, -2.313 ], [ -60.046, -2.314 ], [ -60.046, -2.315 ], [ -60.046, -2.316 ], [ -60.046, -2.317 ], [ -60.046, -2.318 ], [ -60.046, -2.319 ], [ -60.046, -2.32 ], [ -60.047, -2.321 ], [ -60.047, -2.322 ], [ -60.047, -2.323 ], [ -60.047, -2.324 ], [ -60.047, -2.325 ], [ -60.047, -2.326 ], [ -60.047, -2.327 ], [ -60.047, -2.328 ], [ -60.048, -2.328 ], [ -60.048, -2.329 ], [ -60.048, -2.33 ], [ -60.047, -2.33 ], [ -60.047, -2.331 ], [ -60.047, -2.332 ], [ -60.047, -2.333 ], [ -60.047, -2.334 ], [ -60.047, -2.335 ], [ -60.047, -2.336 ], [ -60.046, -2.336 ], [ -60.046, -2.337 ], [ -60.046, -2.338 ], [ -60.046, -2.339 ], [ -60.046, -2.34 ], [ -60.046, -2.341 ], [ -60.046, -2.342 ], [ -60.046, -2.343 ], [ -60.046, -2.344 ], [ -60.046, -2.345 ], [ -60.045, -2.345 ], [ -60.045, -2.346 ], [ -60.045, -2.347 ], [ -60.045, -2.348 ], [ -60.045, -2.349 ], [ -60.045, -2.35 ], [ -60.044, -2.351 ], [ -60.044, -2.352 ], [ -60.044, -2.353 ], [ -60.044, -2.354 ], [ -60.044, -2.355 ], [ -60.043, -2.356 ], [ -60.043, -2.357 ], [ -60.043, -2.358 ], [ -60.043, -2.359 ], [ -60.043, -2.36 ], [ -60.042, -2.36 ], [ -60.042, -2.361 ], [ -60.042, -2.362 ], [ -60.042, -2.363 ], [ -60.042, -2.364 ], [ -60.042, -2.365 ], [ -60.042, -2.366 ], [ -60.042, -2.367 ], [ -60.042, -2.368 ], [ -60.042, -2.369 ], [ -60.041, -2.37 ], [ -60.041, -2.371 ], [ -60.041, -2.372 ], [ -60.041, -2.373 ], [ -60.041, -2.374 ], [ -60.041, -2.375 ], [ -60.041, -2.376 ], [ -60.041, -2.377 ], [ -60.041, -2.378 ], [ -60.04, -2.378 ], [ -60.04, -2.379 ], [ -60.04, -2.38 ], [ -60.04, -2.381 ], [ -60.04, -2.382 ], [ -60.04, -2.383 ], [ -60.039, -2.383 ], [ -60.039, -2.384 ], [ -60.039, -2.385 ], [ -60.039, -2.386 ], [ -60.038, -2.387 ], [ -60.038, -2.388 ], [ -60.038, -2.389 ], [ -60.038, -2.39 ], [ -60.038, -2.391 ], [ -60.037, -2.392 ], [ -60.037, -2.393 ], [ -60.037, -2.394 ], [ -60.037, -2.395 ], [ -60.037, -2.396 ], [ -60.036, -2.396 ], [ -60.036, -2.397 ], [ -60.036, -2.398 ], [ -60.036, -2.399 ], [ -60.036, -2.4 ], [ -60.036, -2.401 ], [ -60.035, -2.401 ], [ -60.035, -2.402 ], [ -60.035, -2.403 ], [ -60.035, -2.404 ], [ -60.035, -2.405 ], [ -60.034, -2.406 ], [ -60.034, -2.407 ], [ -60.034, -2.408 ], [ -60.034, -2.409 ], [ -60.034, -2.41 ], [ -60.033, -2.41 ], [ -60.033, -2.411 ], [ -60.033, -2.412 ], [ -60.033, -2.413 ], [ -60.033, -2.414 ], [ -60.032, -2.415 ], [ -60.032, -2.416 ], [ -60.032, -2.417 ], [ -60.032, -2.418 ], [ -60.032, -2.419 ], [ -60.031, -2.419 ], [ -60.031, -2.42 ], [ -60.031, -2.421 ], [ -60.031, -2.422 ], [ -60.031, -2.423 ], [ -60.03, -2.424 ], [ -60.03, -2.425 ], [ -60.03, -2.426 ], [ -60.03, -2.427 ], [ -60.029, -2.428 ], [ -60.029, -2.429 ], [ -60.029, -2.43 ], [ -60.029, -2.431 ], [ -60.028, -2.433 ], [ -60.028, -2.434 ], [ -60.028, -2.435 ], [ -60.028, -2.436 ], [ -60.028, -2.437 ], [ -60.027, -2.437 ], [ -60.027, -2.438 ], [ -60.027, -2.439 ], [ -60.027, -2.44 ], [ -60.027, -2.441 ], [ -60.026, -2.442 ], [ -60.026, -2.443 ], [ -60.026, -2.445 ], [ -60.026, -2.446 ], [ -60.025, -2.446 ], [ -60.025, -2.447 ], [ -60.025, -2.448 ], [ -60.025, -2.449 ], [ -60.025, -2.45 ], [ -60.025, -2.451 ], [ -60.025, -2.453 ], [ -60.026, -2.454 ], [ -60.026, -2.455 ], [ -60.026, -2.456 ], [ -60.026, -2.457 ], [ -60.027, -2.458 ], [ -60.027, -2.459 ], [ -60.027, -2.46 ], [ -60.027, -2.461 ], [ -60.027, -2.462 ], [ -60.028, -2.462 ], [ -60.028, -2.463 ], [ -60.028, -2.464 ], [ -60.028, -2.465 ], [ -60.028, -2.466 ], [ -60.029, -2.467 ], [ -60.029, -2.468 ], [ -60.029, -2.469 ], [ -60.029, -2.47 ], [ -60.029, -2.471 ], [ -60.03, -2.472 ], [ -60.03, -2.473 ], [ -60.03, -2.474 ], [ -60.03, -2.475 ], [ -60.03, -2.476 ], [ -60.031, -2.476 ], [ -60.031, -2.477 ], [ -60.031, -2.478 ], [ -60.031, -2.479 ], [ -60.031, -2.48 ], [ -60.032, -2.482 ], [ -60.032, -2.484 ], [ -60.033, -2.485 ], [ -60.033, -2.486 ], [ -60.033, -2.487 ], [ -60.034, -2.489 ], [ -60.034, -2.49 ], [ -60.034, -2.491 ], [ -60.034, -2.492 ], [ -60.034, -2.493 ], [ -60.035, -2.494 ], [ -60.035, -2.496 ], [ -60.035, -2.497 ], [ -60.035, -2.498 ], [ -60.035, -2.499 ], [ -60.036, -2.499 ], [ -60.036, -2.5 ], [ -60.036, -2.501 ], [ -60.036, -2.502 ], [ -60.036, -2.503 ], [ -60.036, -2.504 ], [ -60.036, -2.505 ], [ -60.036, -2.506 ], [ -60.036, -2.507 ], [ -60.036, -2.508 ], [ -60.036, -2.509 ], [ -60.037, -2.509 ], [ -60.037, -2.51 ], [ -60.037, -2.511 ], [ -60.037, -2.512 ], [ -60.037, -2.513 ], [ -60.037, -2.514 ], [ -60.037, -2.515 ], [ -60.037, -2.516 ], [ -60.037, -2.517 ], [ -60.038, -2.518 ], [ -60.038, -2.519 ], [ -60.038, -2.52 ], [ -60.037, -2.521 ], [ -60.037, -2.522 ], [ -60.037, -2.523 ], [ -60.037, -2.524 ], [ -60.037, -2.525 ], [ -60.037, -2.526 ], [ -60.037, -2.527 ], [ -60.037, -2.528 ], [ -60.037, -2.529 ], [ -60.037, -2.53 ], [ -60.037, -2.531 ], [ -60.037, -2.532 ], [ -60.037, -2.533 ], [ -60.037, -2.534 ], [ -60.037, -2.535 ], [ -60.037, -2.536 ], [ -60.037, -2.537 ], [ -60.037, -2.538 ], [ -60.037, -2.539 ], [ -60.037, -2.54 ], [ -60.037, -2.541 ], [ -60.037, -2.542 ], [ -60.037, -2.543 ], [ -60.036, -2.544 ], [ -60.036, -2.545 ], [ -60.036, -2.546 ], [ -60.036, -2.547 ], [ -60.036, -2.548 ], [ -60.035, -2.549 ], [ -60.035, -2.55 ], [ -60.03, -2.55 ], [ -60.027, -2.549 ], [ -60.024, -2.549 ], [ -60.023, -2.549 ], [ -60.022, -2.549 ], [ -60.021, -2.549 ], [ -60.02, -2.549 ], [ -60.019, -2.549 ], [ -60.018, -2.549 ], [ -60.018, -2.548 ], [ -60.017, -2.548 ], [ -60.016, -2.548 ], [ -60.016, -2.547 ], [ -60.015, -2.547 ], [ -60.015, -2.546 ], [ -60.015, -2.545 ], [ -60.015, -2.544 ], [ -60.015, -2.543 ], [ -60.014, -2.543 ], [ -60.014, -2.542 ], [ -60.014, -2.541 ], [ -60.013, -2.541 ], [ -60.013, -2.54 ], [ -60.012, -2.54 ], [ -60.011, -2.54 ], [ -60.01, -2.54 ], [ -60.009, -2.54 ], [ -60.008, -2.54 ], [ -60.007, -2.54 ], [ -60.007, -2.541 ], [ -60.006, -2.541 ], [ -60.006, -2.542 ], [ -60.006, -2.543 ], [ -60.005, -2.543 ], [ -60.005, -2.544 ], [ -60.005, -2.545 ], [ -60.004, -2.546 ], [ -60.004, -2.547 ], [ -60.003, -2.547 ], [ -60.003, -2.548 ], [ -60.002, -2.548 ], [ -60.0, -2.55 ], [ -60.0, -2.551 ], [ -59.999, -2.551 ], [ -59.999, -2.552 ], [ -59.998, -2.552 ], [ -59.998, -2.553 ], [ -59.998, -2.554 ], [ -59.997, -2.554 ], [ -59.997, -2.555 ], [ -59.997, -2.556 ], [ -59.998, -2.556 ], [ -59.998, -2.557 ], [ -59.998, -2.558 ], [ -59.999, -2.559 ], [ -59.999, -2.56 ], [ -59.999, -2.561 ], [ -59.999, -2.562 ], [ -59.998, -2.562 ], [ -59.998, -2.563 ], [ -59.997, -2.563 ], [ -59.996, -2.563 ], [ -59.995, -2.563 ], [ -59.995, -2.562 ], [ -59.993, -2.561 ], [ -59.992, -2.559 ], [ -59.99, -2.557 ], [ -59.988, -2.556 ], [ -59.988, -2.555 ], [ -59.987, -2.555 ], [ -59.986, -2.554 ], [ -59.985, -2.554 ], [ -59.984, -2.554 ], [ -59.983, -2.554 ], [ -59.982, -2.554 ], [ -59.982, -2.555 ], [ -59.981, -2.555 ], [ -59.981, -2.556 ], [ -59.98, -2.557 ], [ -59.98, -2.558 ], [ -59.979, -2.558 ], [ -59.978, -2.558 ], [ -59.977, -2.558 ], [ -59.976, -2.558 ], [ -59.975, -2.558 ], [ -59.974, -2.558 ], [ -59.974, -2.559 ], [ -59.973, -2.559 ], [ -59.972, -2.559 ], [ -59.971, -2.559 ], [ -59.97, -2.56 ], [ -59.969, -2.56 ], [ -59.968, -2.56 ], [ -59.967, -2.56 ], [ -59.966, -2.56 ], [ -59.965, -2.56 ], [ -59.965, -2.561 ], [ -59.964, -2.561 ], [ -59.964, -2.562 ], [ -59.963, -2.562 ], [ -59.963, -2.563 ], [ -59.963, -2.564 ], [ -59.963, -2.565 ], [ -59.963, -2.566 ], [ -59.962, -2.566 ], [ -59.962, -2.567 ], [ -59.961, -2.567 ], [ -59.961, -2.568 ], [ -59.96, -2.568 ], [ -59.96, -2.569 ], [ -59.959, -2.569 ], [ -59.958, -2.569 ], [ -59.957, -2.569 ], [ -59.957, -2.568 ], [ -59.956, -2.568 ], [ -59.956, -2.567 ], [ -59.955, -2.567 ], [ -59.955, -2.566 ], [ -59.954, -2.566 ], [ -59.952, -2.566 ], [ -59.951, -2.566 ], [ -59.95, -2.566 ], [ -59.949, -2.566 ], [ -59.948, -2.567 ], [ -59.947, -2.568 ], [ -59.946, -2.569 ], [ -59.946, -2.57 ], [ -59.945, -2.57 ], [ -59.944, -2.57 ], [ -59.943, -2.57 ], [ -59.943, -2.569 ], [ -59.942, -2.569 ], [ -59.941, -2.569 ], [ -59.94, -2.569 ], [ -59.94, -2.57 ], [ -59.939, -2.57 ], [ -59.939, -2.571 ], [ -59.939, -2.572 ], [ -59.939, -2.573 ], [ -59.94, -2.575 ], [ -59.94, -2.576 ], [ -59.94, -2.577 ], [ -59.94, -2.578 ], [ -59.94, -2.579 ], [ -59.94, -2.58 ], [ -59.941, -2.581 ], [ -59.942, -2.582 ], [ -59.943, -2.583 ], [ -59.944, -2.584 ], [ -59.945, -2.585 ], [ -59.946, -2.586 ], [ -59.947, -2.587 ], [ -59.948, -2.588 ], [ -59.948, -2.589 ], [ -59.948, -2.59 ], [ -59.948, -2.591 ], [ -59.947, -2.592 ], [ -59.947, -2.593 ], [ -59.947, -2.594 ], [ -59.947, -2.595 ], [ -59.947, -2.596 ], [ -59.947, -2.597 ], [ -59.948, -2.597 ], [ -59.948, -2.598 ], [ -59.948, -2.599 ], [ -59.948, -2.6 ], [ -59.948, -2.601 ], [ -59.948, -2.602 ], [ -59.949, -2.602 ], [ -59.949, -2.603 ], [ -59.949, -2.604 ], [ -59.95, -2.605 ], [ -59.95, -2.606 ], [ -59.95, -2.607 ], [ -59.95, -2.608 ], [ -59.95, -2.609 ], [ -59.949, -2.609 ], [ -59.949, -2.61 ], [ -59.948, -2.61 ], [ -59.948, -2.611 ], [ -59.947, -2.611 ], [ -59.947, -2.612 ], [ -59.947, -2.613 ], [ -59.947, -2.614 ], [ -59.947, -2.615 ], [ -59.947, -2.616 ], [ -59.947, -2.617 ], [ -59.946, -2.617 ], [ -59.946, -2.618 ], [ -59.945, -2.618 ], [ -59.945, -2.619 ], [ -59.944, -2.619 ], [ -59.943, -2.619 ], [ -59.942, -2.619 ], [ -59.941, -2.619 ], [ -59.94, -2.619 ], [ -59.939, -2.619 ], [ -59.938, -2.619 ], [ -59.937, -2.619 ], [ -59.936, -2.619 ], [ -59.935, -2.619 ], [ -59.934, -2.619 ], [ -59.933, -2.619 ], [ -59.932, -2.619 ], [ -59.932, -2.618 ], [ -59.931, -2.618 ], [ -59.931, -2.617 ], [ -59.93, -2.617 ], [ -59.93, -2.616 ], [ -59.929, -2.616 ], [ -59.928, -2.615 ], [ -59.927, -2.615 ], [ -59.927, -2.614 ], [ -59.926, -2.614 ], [ -59.925, -2.613 ], [ -59.924, -2.612 ], [ -59.923, -2.611 ], [ -59.922, -2.611 ], [ -59.922, -2.61 ], [ -59.921, -2.61 ], [ -59.92, -2.61 ], [ -59.919, -2.61 ], [ -59.918, -2.61 ], [ -59.918, -2.611 ], [ -59.917, -2.611 ], [ -59.914, -2.614 ], [ -59.913, -2.615 ], [ -59.912, -2.617 ], [ -59.912, -2.618 ], [ -59.912, -2.619 ], [ -59.912, -2.62 ], [ -59.912, -2.621 ], [ -59.912, -2.622 ], [ -59.912, -2.623 ], [ -59.912, -2.624 ], [ -59.912, -2.625 ], [ -59.912, -2.626 ], [ -59.912, -2.627 ], [ -59.912, -2.628 ], [ -59.912, -2.629 ], [ -59.911, -2.629 ], [ -59.911, -2.63 ], [ -59.911, -2.631 ], [ -59.91, -2.631 ], [ -59.91, -2.633 ], [ -59.909, -2.634 ], [ -59.909, -2.635 ], [ -59.909, -2.636 ], [ -59.909, -2.637 ], [ -59.909, -2.638 ], [ -59.908, -2.638 ], [ -59.908, -2.64 ], [ -59.908, -2.641 ], [ -59.907, -2.641 ], [ -59.907, -2.642 ], [ -59.906, -2.642 ], [ -59.905, -2.643 ], [ -59.905, -2.644 ], [ -59.905, -2.645 ], [ -59.905, -2.646 ], [ -59.905, -2.647 ], [ -59.905, -2.648 ], [ -59.905, -2.649 ], [ -59.906, -2.65 ], [ -59.906, -2.651 ], [ -59.906, -2.652 ], [ -59.906, -2.653 ], [ -59.906, -2.654 ], [ -59.906, -2.656 ], [ -59.905, -2.656 ], [ -59.905, -2.657 ], [ -59.904, -2.657 ], [ -59.904, -2.658 ], [ -59.903, -2.658 ], [ -59.902, -2.658 ], [ -59.901, -2.658 ], [ -59.9, -2.658 ], [ -59.899, -2.658 ], [ -59.898, -2.658 ], [ -59.897, -2.658 ], [ -59.897, -2.659 ], [ -59.897, -2.66 ], [ -59.896, -2.66 ], [ -59.895, -2.661 ], [ -59.894, -2.662 ], [ -59.893, -2.662 ], [ -59.893, -2.663 ], [ -59.892, -2.663 ], [ -59.892, -2.664 ], [ -59.891, -2.665 ], [ -59.891, -2.667 ], [ -59.89, -2.668 ], [ -59.89, -2.669 ], [ -59.889, -2.669 ], [ -59.888, -2.669 ], [ -59.888, -2.67 ], [ -59.887, -2.671 ], [ -59.887, -2.672 ], [ -59.886, -2.673 ], [ -59.886, -2.674 ], [ -59.885, -2.674 ], [ -59.885, -2.675 ], [ -59.885, -2.676 ], [ -59.884, -2.677 ], [ -59.883, -2.677 ], [ -59.882, -2.677 ], [ -59.882, -2.678 ], [ -59.881, -2.678 ], [ -59.881, -2.679 ], [ -59.88, -2.679 ], [ -59.879, -2.68 ], [ -59.878, -2.681 ], [ -59.877, -2.681 ], [ -59.876, -2.682 ], [ -59.875, -2.682 ], [ -59.874, -2.682 ], [ -59.874, -2.683 ], [ -59.873, -2.684 ], [ -59.873, -2.685 ], [ -59.873, -2.687 ], [ -59.873, -2.689 ], [ -59.873, -2.69 ], [ -59.873, -2.691 ], [ -59.873, -2.692 ], [ -59.873, -2.693 ], [ -59.873, -2.694 ], [ -59.873, -2.695 ], [ -59.873, -2.696 ], [ -59.872, -2.698 ], [ -59.872, -2.699 ], [ -59.872, -2.7 ], [ -59.873, -2.7 ], [ -59.873, -2.702 ], [ -59.873, -2.704 ], [ -59.874, -2.704 ], [ -59.874, -2.706 ], [ -59.874, -2.707 ], [ -59.874, -2.708 ], [ -59.874, -2.709 ], [ -59.874, -2.71 ], [ -59.874, -2.711 ], [ -59.874, -2.712 ], [ -59.874, -2.713 ], [ -59.875, -2.715 ], [ -59.876, -2.716 ], [ -59.877, -2.717 ], [ -59.877, -2.718 ], [ -59.876, -2.719 ], [ -59.876, -2.721 ], [ -59.876, -2.722 ], [ -59.875, -2.722 ], [ -59.875, -2.723 ], [ -59.874, -2.723 ], [ -59.874, -2.722 ], [ -59.873, -2.722 ], [ -59.872, -2.722 ], [ -59.871, -2.722 ], [ -59.87, -2.723 ], [ -59.869, -2.723 ], [ -59.868, -2.723 ], [ -59.868, -2.722 ], [ -59.867, -2.722 ], [ -59.866, -2.722 ], [ -59.864, -2.722 ], [ -59.863, -2.722 ], [ -59.862, -2.722 ], [ -59.862, -2.723 ], [ -59.862, -2.724 ], [ -59.862, -2.725 ], [ -59.862, -2.726 ], [ -59.861, -2.726 ], [ -59.86, -2.726 ], [ -59.858, -2.726 ], [ -59.857, -2.726 ], [ -59.856, -2.726 ], [ -59.855, -2.726 ], [ -59.854, -2.726 ], [ -59.854, -2.725 ], [ -59.853, -2.725 ], [ -59.853, -2.724 ], [ -59.852, -2.724 ], [ -59.851, -2.724 ], [ -59.85, -2.724 ], [ -59.85, -2.725 ], [ -59.849, -2.725 ], [ -59.848, -2.725 ], [ -59.848, -2.726 ], [ -59.847, -2.726 ], [ -59.847, -2.727 ], [ -59.846, -2.727 ], [ -59.846, -2.728 ], [ -59.845, -2.728 ], [ -59.845, -2.729 ], [ -59.845, -2.73 ], [ -59.844, -2.73 ], [ -59.844, -2.731 ], [ -59.843, -2.732 ], [ -59.842, -2.732 ], [ -59.841, -2.733 ], [ -59.841, -2.734 ], [ -59.84, -2.734 ], [ -59.84, -2.735 ], [ -59.839, -2.735 ], [ -59.838, -2.735 ], [ -59.837, -2.735 ], [ -59.836, -2.735 ], [ -59.835, -2.735 ], [ -59.834, -2.735 ], [ -59.833, -2.735 ], [ -59.832, -2.736 ], [ -59.832, -2.737 ], [ -59.831, -2.737 ], [ -59.83, -2.738 ], [ -59.83, -2.739 ], [ -59.83, -2.74 ], [ -59.83, -2.741 ], [ -59.831, -2.742 ], [ -59.831, -2.743 ], [ -59.831, -2.744 ], [ -59.83, -2.745 ], [ -59.83, -2.746 ], [ -59.83, -2.747 ], [ -59.83, -2.748 ], [ -59.831, -2.748 ], [ -59.831, -2.749 ], [ -59.832, -2.75 ], [ -59.833, -2.75 ], [ -59.834, -2.751 ], [ -59.834, -2.752 ], [ -59.835, -2.752 ], [ -59.835, -2.753 ], [ -59.835, -2.754 ], [ -59.835, -2.755 ], [ -59.835, -2.756 ], [ -59.835, -2.757 ], [ -59.835, -2.758 ], [ -59.835, -2.759 ], [ -59.835, -2.76 ], [ -59.834, -2.76 ], [ -59.834, -2.761 ], [ -59.834, -2.762 ], [ -59.834, -2.763 ], [ -59.834, -2.764 ], [ -59.834, -2.765 ], [ -59.833, -2.766 ], [ -59.833, -2.767 ], [ -59.833, -2.768 ], [ -59.832, -2.768 ], [ -59.832, -2.769 ], [ -59.833, -2.769 ], [ -59.833, -2.77 ], [ -59.832, -2.77 ], [ -59.832, -2.771 ], [ -59.829, -2.773 ], [ -59.829, -2.774 ], [ -59.828, -2.774 ], [ -59.827, -2.775 ], [ -59.825, -2.776 ], [ -59.823, -2.776 ], [ -59.822, -2.777 ], [ -59.821, -2.777 ], [ -59.821, -2.778 ], [ -59.82, -2.778 ], [ -59.82, -2.779 ], [ -59.82, -2.78 ], [ -59.82, -2.781 ], [ -59.819, -2.781 ], [ -59.819, -2.782 ], [ -59.819, -2.783 ], [ -59.818, -2.783 ], [ -59.818, -2.784 ], [ -59.817, -2.785 ], [ -59.816, -2.786 ], [ -59.815, -2.786 ], [ -59.815, -2.787 ], [ -59.815, -2.788 ], [ -59.814, -2.788 ], [ -59.814, -2.789 ], [ -59.814, -2.79 ], [ -59.814, -2.791 ], [ -59.814, -2.793 ], [ -59.814, -2.795 ], [ -59.815, -2.796 ], [ -59.815, -2.797 ], [ -59.815, -2.798 ], [ -59.815, -2.799 ], [ -59.816, -2.799 ], [ -59.816, -2.8 ], [ -59.817, -2.8 ], [ -59.818, -2.8 ], [ -59.818, -2.801 ], [ -59.819, -2.801 ], [ -59.819, -2.802 ], [ -59.819, -2.803 ], [ -59.819, -2.804 ], [ -59.819, -2.805 ], [ -59.819, -2.806 ], [ -59.819, -2.807 ], [ -59.818, -2.808 ], [ -59.818, -2.81 ], [ -59.818, -2.811 ], [ -59.817, -2.811 ], [ -59.816, -2.811 ], [ -59.816, -2.812 ], [ -59.815, -2.812 ], [ -59.814, -2.813 ], [ -59.814, -2.814 ], [ -59.813, -2.815 ], [ -59.813, -2.816 ], [ -59.813, -2.817 ], [ -59.812, -2.817 ], [ -59.812, -2.818 ], [ -59.811, -2.818 ], [ -59.81, -2.818 ], [ -59.809, -2.818 ], [ -59.808, -2.818 ], [ -59.807, -2.818 ], [ -59.807, -2.817 ], [ -59.806, -2.817 ], [ -59.805, -2.817 ], [ -59.804, -2.817 ], [ -59.803, -2.817 ], [ -59.802, -2.817 ], [ -59.802, -2.818 ], [ -59.801, -2.819 ], [ -59.801, -2.82 ], [ -59.801, -2.821 ], [ -59.8, -2.821 ], [ -59.799, -2.821 ], [ -59.798, -2.821 ], [ -59.797, -2.821 ], [ -59.797, -2.82 ], [ -59.796, -2.82 ], [ -59.796, -2.821 ], [ -59.795, -2.821 ], [ -59.794, -2.822 ], [ -59.794, -2.823 ], [ -59.793, -2.823 ], [ -59.793, -2.824 ], [ -59.792, -2.824 ], [ -59.792, -2.825 ], [ -59.791, -2.825 ], [ -59.79, -2.825 ], [ -59.79, -2.826 ], [ -59.789, -2.826 ], [ -59.788, -2.826 ], [ -59.788, -2.827 ], [ -59.787, -2.827 ], [ -59.786, -2.827 ], [ -59.786, -2.828 ], [ -59.785, -2.828 ], [ -59.784, -2.828 ], [ -59.784, -2.829 ], [ -59.783, -2.829 ], [ -59.782, -2.829 ], [ -59.781, -2.829 ], [ -59.78, -2.829 ], [ -59.779, -2.829 ], [ -59.779, -2.828 ], [ -59.778, -2.828 ], [ -59.777, -2.828 ], [ -59.776, -2.827 ], [ -59.775, -2.827 ], [ -59.774, -2.826 ], [ -59.773, -2.826 ], [ -59.772, -2.826 ], [ -59.771, -2.825 ], [ -59.77, -2.825 ], [ -59.769, -2.825 ], [ -59.768, -2.824 ], [ -59.767, -2.824 ], [ -59.767, -2.823 ], [ -59.766, -2.823 ], [ -59.765, -2.822 ], [ -59.765, -2.821 ], [ -59.764, -2.821 ], [ -59.764, -2.82 ], [ -59.763, -2.82 ], [ -59.762, -2.819 ], [ -59.761, -2.819 ], [ -59.76, -2.819 ], [ -59.759, -2.82 ], [ -59.758, -2.82 ], [ -59.757, -2.821 ], [ -59.757, -2.822 ], [ -59.756, -2.822 ], [ -59.756, -2.823 ], [ -59.755, -2.823 ], [ -59.754, -2.823 ], [ -59.753, -2.823 ], [ -59.753, -2.824 ], [ -59.752, -2.824 ], [ -59.752, -2.825 ], [ -59.752, -2.826 ], [ -59.752, -2.827 ], [ -59.752, -2.828 ], [ -59.752, -2.829 ], [ -59.751, -2.829 ], [ -59.751, -2.83 ], [ -59.751, -2.831 ], [ -59.751, -2.832 ], [ -59.75, -2.832 ], [ -59.75, -2.833 ], [ -59.75, -2.834 ], [ -59.749, -2.834 ], [ -59.749, -2.835 ], [ -59.748, -2.836 ], [ -59.747, -2.836 ], [ -59.747, -2.837 ], [ -59.747, -2.838 ], [ -59.747, -2.839 ], [ -59.746, -2.839 ], [ -59.746, -2.84 ], [ -59.746, -2.841 ], [ -59.745, -2.841 ], [ -59.745, -2.842 ], [ -59.744, -2.842 ], [ -59.744, -2.843 ], [ -59.743, -2.843 ], [ -59.743, -2.844 ], [ -59.742, -2.844 ], [ -59.741, -2.844 ], [ -59.74, -2.845 ], [ -59.739, -2.845 ], [ -59.738, -2.845 ], [ -59.738, -2.846 ], [ -59.737, -2.846 ], [ -59.736, -2.847 ], [ -59.735, -2.847 ], [ -59.735, -2.848 ], [ -59.734, -2.848 ], [ -59.734, -2.849 ], [ -59.733, -2.849 ], [ -59.733, -2.85 ], [ -59.733, -2.851 ], [ -59.734, -2.851 ], [ -59.734, -2.852 ], [ -59.734, -2.853 ], [ -59.735, -2.853 ], [ -59.736, -2.853 ], [ -59.737, -2.853 ], [ -59.737, -2.854 ], [ -59.738, -2.854 ], [ -59.738, -2.855 ], [ -59.739, -2.855 ], [ -59.739, -2.856 ], [ -59.739, -2.857 ], [ -59.739, -2.858 ], [ -59.739, -2.859 ], [ -59.739, -2.86 ], [ -59.739, -2.861 ], [ -59.738, -2.861 ], [ -59.738, -2.862 ], [ -59.738, -2.863 ], [ -59.737, -2.863 ], [ -59.737, -2.864 ], [ -59.736, -2.864 ], [ -59.736, -2.865 ], [ -59.735, -2.865 ], [ -59.734, -2.866 ], [ -59.733, -2.866 ], [ -59.732, -2.866 ], [ -59.731, -2.866 ], [ -59.731, -2.865 ], [ -59.73, -2.865 ], [ -59.729, -2.865 ], [ -59.729, -2.866 ], [ -59.728, -2.866 ], [ -59.728, -2.867 ], [ -59.727, -2.868 ], [ -59.727, -2.869 ], [ -59.726, -2.869 ], [ -59.725, -2.87 ], [ -59.725, -2.871 ], [ -59.724, -2.871 ], [ -59.724, -2.872 ], [ -59.723, -2.872 ], [ -59.723, -2.873 ], [ -59.722, -2.873 ], [ -59.722, -2.874 ], [ -59.721, -2.875 ], [ -59.721, -2.876 ], [ -59.72, -2.876 ], [ -59.72, -2.877 ], [ -59.719, -2.877 ], [ -59.719, -2.878 ], [ -59.718, -2.879 ], [ -59.717, -2.88 ], [ -59.716, -2.88 ], [ -59.716, -2.881 ], [ -59.715, -2.881 ], [ -59.714, -2.881 ], [ -59.714, -2.882 ], [ -59.713, -2.882 ], [ -59.713, -2.881 ], [ -59.712, -2.881 ], [ -59.711, -2.881 ], [ -59.71, -2.881 ], [ -59.71, -2.882 ], [ -59.709, -2.882 ], [ -59.709, -2.883 ], [ -59.708, -2.883 ], [ -59.708, -2.884 ], [ -59.708, -2.885 ], [ -59.709, -2.885 ], [ -59.709, -2.886 ], [ -59.71, -2.886 ], [ -59.711, -2.887 ], [ -59.712, -2.888 ], [ -59.713, -2.889 ], [ -59.715, -2.89 ], [ -59.716, -2.891 ], [ -59.717, -2.891 ], [ -59.717, -2.892 ], [ -59.718, -2.893 ], [ -59.719, -2.893 ], [ -59.72, -2.894 ], [ -59.721, -2.894 ], [ -59.722, -2.894 ], [ -59.723, -2.894 ], [ -59.724, -2.894 ], [ -59.725, -2.894 ], [ -59.726, -2.894 ], [ -59.727, -2.894 ], [ -59.727, -2.895 ], [ -59.728, -2.895 ], [ -59.729, -2.895 ], [ -59.73, -2.895 ], [ -59.73, -2.896 ], [ -59.731, -2.896 ], [ -59.731, -2.897 ], [ -59.732, -2.897 ], [ -59.733, -2.897 ], [ -59.734, -2.896 ], [ -59.735, -2.896 ], [ -59.735, -2.897 ], [ -59.735, -2.898 ], [ -59.735, -2.899 ], [ -59.735, -2.9 ], [ -59.735, -2.901 ], [ -59.735, -2.902 ], [ -59.735, -2.903 ], [ -59.735, -2.904 ], [ -59.735, -2.905 ], [ -59.734, -2.905 ], [ -59.734, -2.906 ], [ -59.733, -2.906 ], [ -59.733, -2.907 ], [ -59.732, -2.907 ], [ -59.732, -2.908 ], [ -59.731, -2.908 ], [ -59.731, -2.909 ], [ -59.73, -2.909 ], [ -59.729, -2.909 ], [ -59.728, -2.909 ], [ -59.727, -2.909 ], [ -59.727, -2.91 ], [ -59.726, -2.91 ], [ -59.725, -2.91 ], [ -59.725, -2.911 ], [ -59.724, -2.911 ], [ -59.724, -2.912 ], [ -59.723, -2.912 ], [ -59.723, -2.913 ], [ -59.722, -2.914 ], [ -59.722, -2.915 ], [ -59.722, -2.916 ], [ -59.721, -2.916 ], [ -59.721, -2.917 ], [ -59.721, -2.918 ], [ -59.721, -2.919 ], [ -59.721, -2.92 ], [ -59.72, -2.92 ], [ -59.72, -2.921 ], [ -59.719, -2.921 ], [ -59.719, -2.922 ], [ -59.718, -2.922 ], [ -59.718, -2.923 ], [ -59.717, -2.923 ], [ -59.716, -2.923 ], [ -59.715, -2.923 ], [ -59.715, -2.924 ], [ -59.714, -2.924 ], [ -59.714, -2.925 ], [ -59.713, -2.925 ], [ -59.713, -2.926 ], [ -59.712, -2.926 ], [ -59.711, -2.926 ], [ -59.71, -2.926 ], [ -59.71, -2.927 ], [ -59.71, -2.928 ], [ -59.71, -2.929 ], [ -59.709, -2.929 ], [ -59.709, -2.93 ], [ -59.708, -2.93 ], [ -59.708, -2.931 ], [ -59.708, -2.932 ], [ -59.708, -2.933 ], [ -59.708, -2.934 ], [ -59.707, -2.934 ], [ -59.707, -2.935 ], [ -59.706, -2.936 ], [ -59.706, -2.937 ], [ -59.705, -2.937 ], [ -59.705, -2.938 ], [ -59.706, -2.938 ], [ -59.706, -2.939 ], [ -59.669, -2.939 ], [ -59.668, -2.939 ], [ -59.668, -2.94 ], [ -59.667, -2.94 ], [ -59.667, -2.941 ], [ -59.666, -2.941 ], [ -59.666, -2.942 ], [ -59.665, -2.942 ], [ -59.665, -2.943 ], [ -59.664, -2.943 ], [ -59.664, -2.944 ], [ -59.663, -2.945 ], [ -59.662, -2.945 ], [ -59.661, -2.945 ], [ -59.66, -2.945 ], [ -59.66, -2.946 ], [ -59.659, -2.946 ], [ -59.658, -2.946 ], [ -59.658, -2.947 ], [ -59.657, -2.947 ], [ -59.656, -2.947 ], [ -59.655, -2.947 ], [ -59.654, -2.947 ], [ -59.653, -2.947 ], [ -59.653, -2.948 ], [ -59.652, -2.948 ], [ -59.652, -2.949 ], [ -59.651, -2.949 ], [ -59.65, -2.95 ], [ -59.649, -2.95 ], [ -59.649, -2.951 ], [ -59.648, -2.951 ], [ -59.648, -2.952 ], [ -59.648, -2.953 ], [ -59.648, -2.954 ], [ -59.647, -2.955 ], [ -59.647, -2.956 ], [ -59.646, -2.956 ], [ -59.645, -2.956 ], [ -59.644, -2.956 ], [ -59.644, -2.957 ], [ -59.644, -2.958 ], [ -59.643, -2.958 ], [ -59.642, -2.958 ], [ -59.641, -2.959 ], [ -59.64, -2.959 ], [ -59.64, -2.96 ], [ -59.639, -2.96 ], [ -59.638, -2.96 ], [ -59.638, -2.961 ], [ -59.637, -2.961 ], [ -59.637, -2.962 ], [ -59.636, -2.962 ], [ -59.635, -2.962 ], [ -59.634, -2.962 ], [ -59.632, -2.962 ], [ -59.631, -2.963 ], [ -59.63, -2.963 ], [ -59.63, -2.964 ], [ -59.629, -2.964 ], [ -59.629, -2.963 ], [ -59.628, -2.963 ], [ -59.627, -2.963 ], [ -59.627, -2.964 ], [ -59.626, -2.964 ], [ -59.625, -2.964 ], [ -59.624, -2.964 ], [ -59.623, -2.965 ], [ -59.621, -2.965 ], [ -59.621, -2.964 ], [ -59.62, -2.964 ], [ -59.619, -2.964 ], [ -59.618, -2.964 ], [ -59.617, -2.964 ], [ -59.617, -2.963 ], [ -59.616, -2.963 ], [ -59.615, -2.963 ], [ -59.615, -2.962 ], [ -59.614, -2.962 ], [ -59.614, -2.961 ], [ -59.613, -2.961 ], [ -59.612, -2.961 ], [ -59.611, -2.961 ], [ -59.61, -2.961 ], [ -59.609, -2.962 ], [ -59.608, -2.962 ], [ -59.607, -2.962 ], [ -59.606, -2.961 ], [ -59.605, -2.961 ], [ -59.604, -2.96 ], [ -59.603, -2.96 ], [ -59.602, -2.96 ], [ -59.602, -2.959 ], [ -59.601, -2.959 ], [ -59.6, -2.958 ], [ -59.599, -2.958 ], [ -59.598, -2.959 ], [ -59.597, -2.959 ], [ -59.596, -2.959 ], [ -59.595, -2.959 ], [ -59.594, -2.959 ], [ -59.594, -2.96 ], [ -59.593, -2.96 ], [ -59.592, -2.96 ], [ -59.591, -2.96 ], [ -59.59, -2.96 ], [ -59.59, -2.961 ], [ -59.589, -2.961 ], [ -59.589, -2.96 ], [ -59.588, -2.96 ], [ -59.587, -2.96 ], [ -59.587, -2.961 ], [ -59.586, -2.961 ], [ -59.585, -2.96 ], [ -59.584, -2.96 ], [ -59.583, -2.96 ], [ -59.582, -2.959 ], [ -59.581, -2.959 ], [ -59.58, -2.959 ], [ -59.58, -2.96 ], [ -59.579, -2.96 ], [ -59.579, -2.961 ], [ -59.578, -2.962 ], [ -59.577, -2.962 ], [ -59.576, -2.962 ], [ -59.575, -2.962 ], [ -59.574, -2.962 ], [ -59.573, -2.962 ], [ -59.572, -2.962 ], [ -59.572, -2.961 ], [ -59.571, -2.961 ], [ -59.571, -2.96 ], [ -59.571, -2.959 ], [ -59.57, -2.959 ], [ -59.569, -2.959 ], [ -59.568, -2.959 ], [ -59.568, -2.958 ], [ -59.567, -2.958 ], [ -59.566, -2.958 ], [ -59.565, -2.958 ], [ -59.565, -2.959 ], [ -59.564, -2.959 ], [ -59.564, -2.958 ], [ -59.563, -2.958 ], [ -59.562, -2.958 ], [ -59.561, -2.958 ], [ -59.56, -2.958 ], [ -59.559, -2.958 ], [ -59.558, -2.958 ], [ -59.557, -2.958 ], [ -59.556, -2.958 ], [ -59.555, -2.958 ], [ -59.554, -2.958 ], [ -59.553, -2.958 ], [ -59.552, -2.958 ], [ -59.551, -2.958 ], [ -59.55, -2.957 ], [ -59.549, -2.957 ], [ -59.548, -2.957 ], [ -59.547, -2.957 ], [ -59.546, -2.957 ], [ -59.545, -2.957 ], [ -59.544, -2.957 ], [ -59.543, -2.957 ], [ -59.543, -2.958 ], [ -59.542, -2.958 ], [ -59.542, -2.957 ], [ -59.541, -2.957 ], [ -59.541, -2.956 ], [ -59.54, -2.956 ], [ -59.54, -2.955 ], [ -59.539, -2.955 ], [ -59.539, -2.954 ], [ -59.538, -2.954 ], [ -59.538, -2.953 ], [ -59.537, -2.953 ], [ -59.536, -2.953 ], [ -59.535, -2.953 ], [ -59.534, -2.953 ], [ -59.533, -2.953 ], [ -59.533, -2.952 ], [ -59.532, -2.952 ], [ -59.532, -2.951 ], [ -59.531, -2.951 ], [ -59.53, -2.951 ], [ -59.53, -2.952 ], [ -59.529, -2.952 ], [ -59.528, -2.952 ], [ -59.528, -2.953 ], [ -59.527, -2.953 ], [ -59.526, -2.953 ], [ -59.525, -2.953 ], [ -59.525, -2.954 ], [ -59.524, -2.954 ], [ -59.524, -2.955 ], [ -59.523, -2.955 ], [ -59.523, -2.956 ], [ -59.524, -2.956 ], [ -59.524, -2.957 ], [ -59.524, -2.958 ], [ -59.524, -2.959 ], [ -59.524, -2.96 ], [ -59.523, -2.96 ], [ -59.522, -2.96 ], [ -59.522, -2.961 ], [ -59.521, -2.961 ], [ -59.52, -2.961 ], [ -59.518, -2.961 ], [ -59.515, -2.961 ], [ -59.511, -2.963 ], [ -59.509, -2.964 ], [ -59.508, -2.964 ], [ -59.507, -2.964 ], [ -59.507, -2.965 ], [ -59.507, -2.966 ], [ -59.506, -2.967 ], [ -59.505, -2.968 ], [ -59.504, -2.97 ], [ -59.502, -2.972 ], [ -59.501, -2.972 ], [ -59.5, -2.972 ], [ -59.5, -2.973 ], [ -59.5, -2.974 ], [ -59.5, -2.975 ], [ -59.501, -2.976 ], [ -59.501, -2.977 ], [ -59.501, -2.978 ], [ -59.5, -2.98 ], [ -59.5, -2.981 ], [ -59.501, -2.981 ], [ -59.502, -2.981 ], [ -59.503, -2.981 ], [ -59.504, -2.981 ], [ -59.505, -2.981 ], [ -59.506, -2.982 ], [ -59.507, -2.982 ], [ -59.507, -2.983 ], [ -59.507, -2.984 ], [ -59.506, -2.984 ], [ -59.505, -2.984 ], [ -59.504, -2.984 ], [ -59.503, -2.984 ], [ -59.503, -2.985 ], [ -59.503, -2.986 ], [ -59.502, -2.986 ], [ -59.502, -2.987 ], [ -59.502, -2.988 ], [ -59.501, -2.988 ], [ -59.501, -2.989 ], [ -59.498, -2.989 ], [ -59.496, -2.99 ], [ -59.495, -2.99 ], [ -59.494, -2.99 ], [ -59.492, -2.99 ], [ -59.491, -2.991 ], [ -59.49, -2.991 ], [ -59.489, -2.991 ], [ -59.488, -2.991 ], [ -59.488, -2.992 ], [ -59.487, -2.992 ], [ -59.486, -2.992 ], [ -59.486, -2.993 ], [ -59.485, -2.993 ], [ -59.484, -2.994 ], [ -59.483, -2.995 ], [ -59.483, -2.996 ], [ -59.482, -2.996 ], [ -59.482, -2.997 ], [ -59.481, -2.997 ], [ -59.481, -2.998 ], [ -59.481, -2.999 ], [ -59.48, -3.0 ], [ -59.48, -3.001 ], [ -59.48, -3.002 ], [ -59.48, -3.003 ], [ -59.48, -3.004 ], [ -59.479, -3.005 ], [ -59.479, -3.006 ], [ -59.478, -3.006 ], [ -59.478, -3.007 ], [ -59.476, -3.008 ], [ -59.475, -3.009 ], [ -59.474, -3.01 ], [ -59.473, -3.01 ], [ -59.472, -3.011 ], [ -59.471, -3.012 ], [ -59.47, -3.013 ], [ -59.469, -3.013 ], [ -59.469, -3.014 ], [ -59.468, -3.014 ], [ -59.468, -3.015 ], [ -59.467, -3.015 ], [ -59.467, -3.016 ], [ -59.466, -3.016 ], [ -59.466, -3.017 ], [ -59.465, -3.017 ], [ -59.465, -3.018 ], [ -59.464, -3.018 ], [ -59.464, -3.019 ], [ -59.463, -3.019 ], [ -59.463, -3.02 ], [ -59.462, -3.021 ], [ -59.462, -3.022 ], [ -59.461, -3.023 ], [ -59.461, -3.024 ], [ -59.46, -3.024 ], [ -59.46, -3.025 ], [ -59.459, -3.025 ], [ -59.459, -3.026 ], [ -59.458, -3.026 ], [ -59.458, -3.027 ], [ -59.457, -3.027 ], [ -59.457, -3.028 ], [ -59.456, -3.029 ], [ -59.456, -3.03 ], [ -59.455, -3.03 ], [ -59.455, -3.031 ], [ -59.454, -3.031 ], [ -59.454, -3.032 ], [ -59.453, -3.032 ], [ -59.453, -3.033 ], [ -59.452, -3.033 ], [ -59.445, -3.037 ], [ -59.444, -3.037 ], [ -59.444, -3.038 ], [ -59.443, -3.038 ], [ -59.442, -3.039 ], [ -59.441, -3.039 ], [ -59.441, -3.04 ], [ -59.44, -3.04 ], [ -59.439, -3.041 ], [ -59.438, -3.041 ], [ -59.437, -3.042 ], [ -59.436, -3.043 ], [ -59.435, -3.044 ], [ -59.434, -3.045 ], [ -59.433, -3.046 ], [ -59.432, -3.047 ], [ -59.431, -3.047 ], [ -59.431, -3.048 ], [ -59.43, -3.048 ], [ -59.429, -3.048 ], [ -59.429, -3.049 ], [ -59.428, -3.049 ], [ -59.427, -3.049 ], [ -59.427, -3.05 ], [ -59.426, -3.05 ], [ -59.425, -3.05 ], [ -59.424, -3.05 ], [ -59.424, -3.051 ], [ -59.423, -3.051 ], [ -59.422, -3.051 ], [ -59.421, -3.051 ], [ -59.42, -3.051 ], [ -59.419, -3.051 ], [ -59.418, -3.051 ], [ -59.417, -3.051 ], [ -59.416, -3.051 ], [ -59.415, -3.051 ], [ -59.414, -3.051 ], [ -59.414, -3.052 ], [ -59.413, -3.052 ], [ -59.412, -3.052 ], [ -59.411, -3.052 ], [ -59.41, -3.052 ], [ -59.409, -3.052 ], [ -59.409, -3.053 ], [ -59.408, -3.053 ], [ -59.407, -3.053 ], [ -59.406, -3.053 ], [ -59.405, -3.054 ], [ -59.404, -3.054 ], [ -59.403, -3.054 ], [ -59.403, -3.055 ], [ -59.402, -3.055 ], [ -59.397, -3.058 ], [ -59.387, -3.064 ], [ -59.381, -3.066 ], [ -59.378, -3.068 ], [ -59.377, -3.068 ], [ -59.377, -3.069 ], [ -59.376, -3.069 ], [ -59.375, -3.07 ], [ -59.374, -3.071 ], [ -59.373, -3.072 ], [ -59.373, -3.073 ], [ -59.372, -3.073 ], [ -59.372, -3.074 ], [ -59.371, -3.074 ], [ -59.371, -3.075 ], [ -59.371, -3.076 ], [ -59.37, -3.076 ], [ -59.37, -3.077 ], [ -59.369, -3.077 ] ], [ [ -60.671, -2.107 ], [ -60.67, -2.107 ], [ -60.67, -2.106 ], [ -60.671, -2.106 ], [ -60.671, -2.107 ] ] ], [ [ [ -60.615, -2.033 ], [ -60.615, -2.032 ], [ -60.614, -2.032 ], [ -60.614, -2.033 ], [ -60.615, -2.033 ] ] ] ] } }
]
}
